{"type":"FeatureCollection","name":"usgs_of2005_1170","features":[{"type":"Feature","properties":{"Name":"cntr10m","ID":"cntr10m","Agency":"USGS","DataLink":"https://pubs.usgs.gov/of/2005/1170/basemaps/cntr10m.tgz","MetadataLink":"https://pubs.usgs.gov/of/2005/1170/basemaps/cntr10m.txt","DataType":"vector","DataSource":"usgs_of2005_1170","Info":"10 Meter Bathymetric Contours","LastUpdate":"20260921171717"},"geometry":{"type":"Polygon","coordinates":[[[-118.7328186,33.73612976],[-118.7328186,34.74788284],[-120.99700165,34.74788284],[-120.99700165,33.73612976],[-118.7328186,33.73612976]]]}},{"type":"Feature","properties":{"Name":"calif3nm","ID":"calif3nm","Agency":"USGS","DataLink":"https://pubs.usgs.gov/of/2005/1170/basemaps/calif3nm.tgz","MetadataLink":"https://pubs.usgs.gov/of/2005/1170/basemaps/calif3nm.txt","DataType":"vector","DataSource":"usgs_of2005_1170","Info":"California state waters (3 nautical miles)","LastUpdate":"20260921171718"},"geometry":{"type":"Polygon","coordinates":[[[-117.70160675,33.41336823],[-117.70160675,35.72727585],[-121.3375473,35.72727585],[-121.3375473,33.41336823],[-117.70160675,33.41336823]]]}},{"type":"Feature","properties":{"Name":"channel_islands_mpa","ID":"channel_islands_mpa","Agency":"USGS","DataLink":"https://pubs.usgs.gov/of/2005/1170/basemaps/Channel_Islands_MPA.tgz","MetadataLink":"https://pubs.usgs.gov/of/2005/1170/basemaps/Channel_Islands_MPA.txt","DataType":"vector","DataSource":"usgs_of2005_1170","Info":"Existing MPA boundaries","LastUpdate":"20260921171719"},"geometry":{"type":"Polygon","coordinates":[[[-118.95795,33.412078],[-118.95795,34.141369],[-120.570363,34.141369],[-120.570363,33.412078],[-118.95795,33.412078]]]}},{"type":"Feature","properties":{"Name":"scampa","ID":"scampa","Agency":"USGS","DataLink":"https://pubs.usgs.gov/of/2005/1170/basemaps/scampa.tgz","MetadataLink":"https://pubs.usgs.gov/of/2005/1170/basemaps/scampa.txt","DataType":"vector","DataSource":"usgs_of2005_1170","Info":"Proposed MPA boundaries","LastUpdate":"20260921171720"},"geometry":{"type":"Polygon","coordinates":[[[-118.90743256,33.36573029],[-118.90743256,34.20654297],[-120.58357239,34.20654297],[-120.58357239,33.36573029],[-118.90743256,33.36573029]]]}},{"type":"Feature","properties":{"Name":"scasmpl","ID":"scasmpl","Agency":"USGS","DataLink":"https://pubs.usgs.gov/of/2005/1170/usseabed/scasmpl.tgz","MetadataLink":"https://pubs.usgs.gov/of/2005/1170/usseabed/scasmpl.txt","DataType":"vector","DataSource":"usgs_of2005_1170","Info":"Location and contents of samples (usSEABED)","LastUpdate":"20260921171720"},"geometry":{"type":"Polygon","coordinates":[[[-118.8,33.7],[-118.8,34.568],[-121.1,34.568],[-121.1,33.7],[-118.8,33.7]]]}},{"type":"Feature","properties":{"Name":"scasstrk","ID":"scasstrk","Agency":"USGS","DataLink":"https://pubs.usgs.gov/of/2005/1170/basemaps/scasstrk.tgz","MetadataLink":"https://pubs.usgs.gov/of/2005/1170/basemaps/scasstrk.txt","DataType":"vector","DataSource":"usgs_of2005_1170","Info":"Survey track lines","LastUpdate":"20260921171729"},"geometry":{"type":"Polygon","coordinates":[[[-118.0,33.0],[-118.0,35.0],[-121.0,35.0],[-121.0,33.0],[-118.0,33.0]]]}},{"type":"Feature","properties":{"Name":"scav2obs","ID":"scav2obs","Agency":"USGS","DataLink":"https://pubs.usgs.gov/of/2005/1170/observations/scav2obs.tgz","MetadataLink":"https://pubs.usgs.gov/of/2005/1170/observations/scav2obs.txt","DataType":"vector","DataSource":"usgs_of2005_1170","Info":"Visual observations from dives","LastUpdate":"20260921171729"},"geometry":{"type":"Polygon","coordinates":[[[-118.95246887,34.0202713],[-118.95246887,34.0845108],[-119.06259918,34.0845108],[-119.06259918,34.0202713],[-118.95246887,34.0202713]]]}},{"type":"Feature","properties":{"Name":"nanp1m","ID":"nanp1m","Agency":"USGS","DataLink":"https://pubs.usgs.gov/of/2005/1170/sidescan/nanp1m.tgz","MetadataLink":"https://pubs.usgs.gov/of/2005/1170/sidescan/nanp1m.txt","DataType":"raster","DataSource":"usgs_of2005_1170","Info":"North Anacapa Passage Sidescan (1m)","LastUpdate":"20260921171730"},"geometry":{"type":"Polygon","coordinates":[[[-119.45,34.02],[-119.45,33.08],[-119.53,33.08],[-119.53,34.02],[-119.45,34.02]]]}},{"type":"Feature","properties":{"Name":"sana1m","ID":"sana1m","Agency":"USGS","DataLink":"https://pubs.usgs.gov/of/2005/1170/sidescan/sana1m.tgz","MetadataLink":"https://pubs.usgs.gov/of/2005/1170/sidescan/sana1m.txt","DataType":"raster","DataSource":"usgs_of2005_1170","Info":"South Anacapa Island Sidescan (1m)","LastUpdate":"20260921171731"},"geometry":{"type":"Polygon","coordinates":[[[-119.332033,34.984087],[-119.332033,34.024248],[-119.455773,34.024248],[-119.455773,34.984087],[-119.332033,34.984087]]]}},{"type":"Feature","properties":{"Name":"sanp1m","ID":"sanp1m","Agency":"USGS","DataLink":"https://pubs.usgs.gov/of/2005/1170/sidescan/sanp1m.tgz","MetadataLink":"https://pubs.usgs.gov/of/2005/1170/sidescan/sanp1m.txt","DataType":"raster","DataSource":"usgs_of2005_1170","Info":"South Anacapa Passage Sidescan (1m)","LastUpdate":"20260921171731"},"geometry":{"type":"Polygon","coordinates":[[[-119.45,33.98],[-119.45,34.03],[-119.53,34.03],[-119.53,33.98],[-119.45,33.98]]]}},{"type":"Feature","properties":{"Name":"secru1m","ID":"secru1m","Agency":"USGS","DataLink":"https://pubs.usgs.gov/of/2005/1170/sidescan/secru1m.tgz","MetadataLink":"https://pubs.usgs.gov/of/2005/1170/sidescan/secru1m.txt","DataType":"raster","DataSource":"usgs_of2005_1170","Info":"Southeast Santa Cruz Island Sidescan (1m)","LastUpdate":"20260921171732"},"geometry":{"type":"Polygon","coordinates":[[[-119.587557,33.934137],[-119.587557,33.989786],[-119.724057,33.989786],[-119.724057,33.934137],[-119.587557,33.934137]]]}},{"type":"Feature","properties":{"Name":"nanphab","ID":"nanphab","Agency":"USGS","DataLink":"https://pubs.usgs.gov/of/2005/1170/habitat/nanphab.tgz","MetadataLink":"https://pubs.usgs.gov/of/2005/1170/habitat/nanphab.txt","DataType":"vector","DataSource":"usgs_of2005_1170","Info":"North Anacapa Passage Habitat Polygons","LastUpdate":"20260921171732"},"geometry":{"type":"Polygon","coordinates":[[[-119.447256,34.019136],[-119.447256,34.081139],[-119.528215,34.081139],[-119.528215,34.019136],[-119.447256,34.019136]]]}},{"type":"Feature","properties":{"Name":"sanahab","ID":"sanahab","Agency":"USGS","DataLink":"https://pubs.usgs.gov/of/2005/1170/habitat/sanahab.tgz","MetadataLink":"https://pubs.usgs.gov/of/2005/1170/habitat/sanahab.txt","DataType":"vector","DataSource":"usgs_of2005_1170","Info":"South Anacapa Island Habitat Polygons","LastUpdate":"20260921171733"},"geometry":{"type":"Polygon","coordinates":[[[-119.331627,33.981107],[-119.331627,34.027738],[-119.456723,34.027738],[-119.456723,33.981107],[-119.331627,33.981107]]]}},{"type":"Feature","properties":{"Name":"sanphab","ID":"sanphab","Agency":"USGS","DataLink":"https://pubs.usgs.gov/of/2005/1170/habitat/sanphab.tgz","MetadataLink":"https://pubs.usgs.gov/of/2005/1170/habitat/sanphab.txt","DataType":"vector","DataSource":"usgs_of2005_1170","Info":"South Anacapa Passage Habitat Polygons","LastUpdate":"20260921171734"},"geometry":{"type":"Polygon","coordinates":[[[-119.450034,33.977056],[-119.450034,34.028426],[-119.532691,34.028426],[-119.532691,33.977056],[-119.450034,33.977056]]]}},{"type":"Feature","properties":{"Name":"secrhab","ID":"secrhab","Agency":"USGS","DataLink":"https://pubs.usgs.gov/of/2005/1170/habitat/secrhab.tgz","MetadataLink":"https://pubs.usgs.gov/of/2005/1170/habitat/secrhab.txt","DataType":"vector","DataSource":"usgs_of2005_1170","Info":"Southeast Santa Cruz Island Habitat Polygons","LastUpdate":"20260921171742"},"geometry":{"type":"Polygon","coordinates":[[[-118.0,33.0],[-118.0,35.0],[-121.0,35.0],[-121.0,33.0],[-118.0,33.0]]]}}]}
