{"type":"FeatureCollection","name":"usgs_ds487","features":[{"type":"Feature","properties":{"Name":"la1","ID":"la1","Agency":"USGS","DataLink":"https://pubs.usgs.gov/ds/487/data/DEMs/la1.zip","MetadataLink":"https://pubs.usgs.gov/ds/487/metadata/DEM_fullmetadata.xml","DataType":"rio","DataSource":"usgs_ds487","Info":"USGS DS 487, 3 m coastal DEM","LastUpdate":"20260915180903"},"geometry":{"type":"Polygon","coordinates":[[[-117.99928032213349,33.695580543804695],[-117.99928032213349,33.91847939622919],[-118.23927409530151,33.91847939622919],[-118.23927409530151,33.695580543804695],[-117.99928032213349,33.695580543804695]]]}},{"type":"Feature","properties":{"Name":"la10","ID":"la10","Agency":"USGS","DataLink":"https://pubs.usgs.gov/ds/487/data/DEMs/la10.zip","MetadataLink":"https://pubs.usgs.gov/ds/487/metadata/DEM_fullmetadata.xml","DataType":"rio","DataSource":"usgs_ds487","Info":"USGS DS 487, 3 m coastal DEM","LastUpdate":"20260915180915"},"geometry":{"type":"Polygon","coordinates":[[[-118.69064435514315,33.99286554664561],[-118.69064435514315,34.046639139819284],[-118.80467314863586,34.046639139819284],[-118.80467314863586,33.99286554664561],[-118.69064435514315,33.99286554664561]]]}},{"type":"Feature","properties":{"Name":"la11","ID":"la11","Agency":"USGS","DataLink":"https://pubs.usgs.gov/ds/487/data/DEMs/la11.zip","MetadataLink":"https://pubs.usgs.gov/ds/487/metadata/DEM_fullmetadata.xml","DataType":"rio","DataSource":"usgs_ds487","Info":"USGS DS 487, 3 m coastal DEM","LastUpdate":"20260915180929"},"geometry":{"type":"Polygon","coordinates":[[[-118.78198787240242,33.987139942154776],[-118.78198787240242,34.060439692012324],[-118.95534420149474,34.060439692012324],[-118.95534420149474,33.987139942154776],[-118.78198787240242,33.987139942154776]]]}},{"type":"Feature","properties":{"Name":"la2","ID":"la2","Agency":"USGS","DataLink":"https://pubs.usgs.gov/ds/487/data/DEMs/la2.zip","MetadataLink":"https://pubs.usgs.gov/ds/487/metadata/DEM_fullmetadata.xml","DataType":"rio","DataSource":"usgs_ds487","Info":"USGS DS 487, 3 m coastal DEM","LastUpdate":"20260915181037"},"geometry":{"type":"Polygon","coordinates":[[[-118.1714278889214,33.68909850236466],[-118.1714278889214,33.94134106444967],[-118.38592970441864,33.94134106444967],[-118.38592970441864,33.68909850236466],[-118.1714278889214,33.68909850236466]]]}},{"type":"Feature","properties":{"Name":"la3","ID":"la3","Agency":"USGS","DataLink":"https://pubs.usgs.gov/ds/487/data/DEMs/la3.zip","MetadataLink":"https://pubs.usgs.gov/ds/487/metadata/DEM_fullmetadata.xml","DataType":"rio","DataSource":"usgs_ds487","Info":"USGS DS 487, 3 m coastal DEM","LastUpdate":"20260915181042"},"geometry":{"type":"Polygon","coordinates":[[[-118.28761845468789,33.69450221565617],[-118.28761845468789,33.750458110839645],[-118.38487363993282,33.750458110839645],[-118.38487363993282,33.69450221565617],[-118.28761845468789,33.69450221565617]]]}},{"type":"Feature","properties":{"Name":"la4","ID":"la4","Agency":"USGS","DataLink":"https://pubs.usgs.gov/ds/487/data/DEMs/la4.zip","MetadataLink":"https://pubs.usgs.gov/ds/487/metadata/DEM_fullmetadata.xml","DataType":"rio","DataSource":"usgs_ds487","Info":"USGS DS 487, 3 m coastal DEM","LastUpdate":"20260915181052"},"geometry":{"type":"Polygon","coordinates":[[[-118.36845036360846,33.7295356087684],[-118.36845036360846,33.79012921326199],[-118.44093223751487,33.79012921326199],[-118.44093223751487,33.7295356087684],[-118.36845036360846,33.7295356087684]]]}},{"type":"Feature","properties":{"Name":"la5","ID":"la5","Agency":"USGS","DataLink":"https://pubs.usgs.gov/ds/487/data/DEMs/la5.zip","MetadataLink":"https://pubs.usgs.gov/ds/487/metadata/DEM_fullmetadata.xml","DataType":"rio","DataSource":"usgs_ds487","Info":"USGS DS 487, 3 m coastal DEM","LastUpdate":"20260915181102"},"geometry":{"type":"Polygon","coordinates":[[[-118.37907858714692,33.78074862063161],[-118.37907858714692,33.86057421964689],[-118.43747962749872,33.86057421964689],[-118.43747962749872,33.78074862063161],[-118.37907858714692,33.78074862063161]]]}},{"type":"Feature","properties":{"Name":"la6","ID":"la6","Agency":"USGS","DataLink":"https://pubs.usgs.gov/ds/487/data/DEMs/la6.zip","MetadataLink":"https://pubs.usgs.gov/ds/487/metadata/DEM_fullmetadata.xml","DataType":"rio","DataSource":"usgs_ds487","Info":"USGS DS 487, 3 m coastal DEM","LastUpdate":"20260915181112"},"geometry":{"type":"Polygon","coordinates":[[[-118.38647408921618,33.84564631627058],[-118.38647408921618,33.94586924668545],[-118.47265905143091,33.94586924668545],[-118.47265905143091,33.84564631627058],[-118.38647408921618,33.84564631627058]]]}},{"type":"Feature","properties":{"Name":"la7","ID":"la7","Agency":"USGS","DataLink":"https://pubs.usgs.gov/ds/487/data/DEMs/la7.zip","MetadataLink":"https://pubs.usgs.gov/ds/487/metadata/DEM_fullmetadata.xml","DataType":"rio","DataSource":"usgs_ds487","Info":"USGS DS 487, 3 m coastal DEM","LastUpdate":"20260915181155"},"geometry":{"type":"Polygon","coordinates":[[[-118.34251636797246,33.92678271874221],[-118.34251636797246,34.05614048712752],[-118.5310489284327,34.05614048712752],[-118.5310489284327,33.92678271874221],[-118.34251636797246,33.92678271874221]]]}},{"type":"Feature","properties":{"Name":"la8","ID":"la8","Agency":"USGS","DataLink":"https://pubs.usgs.gov/ds/487/data/DEMs/la8.zip","MetadataLink":"https://pubs.usgs.gov/ds/487/metadata/DEM_fullmetadata.xml","DataType":"rio","DataSource":"usgs_ds487","Info":"USGS DS 487, 3 m coastal DEM","LastUpdate":"20260915181207"},"geometry":{"type":"Polygon","coordinates":[[[-118.48511731026844,33.99045663212759],[-118.48511731026844,34.06828965038453],[-118.60637209626893,34.06828965038453],[-118.60637209626893,33.99045663212759],[-118.48511731026844,33.99045663212759]]]}},{"type":"Feature","properties":{"Name":"la9","ID":"la9","Agency":"USGS","DataLink":"https://pubs.usgs.gov/ds/487/data/DEMs/la9.zip","MetadataLink":"https://pubs.usgs.gov/ds/487/metadata/DEM_fullmetadata.xml","DataType":"rio","DataSource":"usgs_ds487","Info":"USGS DS 487, 3 m coastal DEM","LastUpdate":"20260915181216"},"geometry":{"type":"Polygon","coordinates":[[[-118.59465087541139,34.01736567666417],[-118.59465087541139,34.05543274920133],[-118.70327892508492,34.05543274920133],[-118.70327892508492,34.01736567666417],[-118.59465087541139,34.01736567666417]]]}},{"type":"Feature","properties":{"Name":"oc1","ID":"oc1","Agency":"USGS","DataLink":"https://pubs.usgs.gov/ds/487/data/DEMs/oc1.zip","MetadataLink":"https://pubs.usgs.gov/ds/487/metadata/DEM_fullmetadata.xml","DataType":"rio","DataSource":"usgs_ds487","Info":"USGS DS 487, 3 m coastal DEM","LastUpdate":"20260915181232"},"geometry":{"type":"Polygon","coordinates":[[[-117.56493272371812,33.36454060196425],[-117.56493272371812,33.47111757292467],[-117.6882703879686,33.47111757292467],[-117.6882703879686,33.36454060196425],[-117.56493272371812,33.36454060196425]]]}},{"type":"Feature","properties":{"Name":"oc2","ID":"oc2","Agency":"USGS","DataLink":"https://pubs.usgs.gov/ds/487/data/DEMs/oc2.zip","MetadataLink":"https://pubs.usgs.gov/ds/487/metadata/DEM_fullmetadata.xml","DataType":"rio","DataSource":"usgs_ds487","Info":"USGS DS 487, 3 m coastal DEM","LastUpdate":"20260915181244"},"geometry":{"type":"Polygon","coordinates":[[[-117.63113430838514,33.41959874609786],[-117.63113430838514,33.522118330599234],[-117.75314073234335,33.522118330599234],[-117.75314073234335,33.41959874609786],[-117.63113430838514,33.41959874609786]]]}},{"type":"Feature","properties":{"Name":"oc3","ID":"oc3","Agency":"USGS","DataLink":"https://pubs.usgs.gov/ds/487/data/DEMs/oc3.zip","MetadataLink":"https://pubs.usgs.gov/ds/487/metadata/DEM_fullmetadata.xml","DataType":"rio","DataSource":"usgs_ds487","Info":"USGS DS 487, 3 m coastal DEM","LastUpdate":"20260915181252"},"geometry":{"type":"Polygon","coordinates":[[[-117.7083614274259,33.479757546646624],[-117.7083614274259,33.56794011531083],[-117.8197069771131,33.56794011531083],[-117.8197069771131,33.479757546646624],[-117.7083614274259,33.479757546646624]]]}},{"type":"Feature","properties":{"Name":"oc4","ID":"oc4","Agency":"USGS","DataLink":"https://pubs.usgs.gov/ds/487/data/DEMs/oc4.zip","MetadataLink":"https://pubs.usgs.gov/ds/487/metadata/DEM_fullmetadata.xml","DataType":"rio","DataSource":"usgs_ds487","Info":"USGS DS 487, 3 m coastal DEM","LastUpdate":"20260915181259"},"geometry":{"type":"Polygon","coordinates":[[[-117.78780350240662,33.540239396513435],[-117.78780350240662,33.61362447145761],[-117.90102697041426,33.61362447145761],[-117.90102697041426,33.540239396513435],[-117.78780350240662,33.540239396513435]]]}},{"type":"Feature","properties":{"Name":"oc5","ID":"oc5","Agency":"USGS","DataLink":"https://pubs.usgs.gov/ds/487/data/DEMs/oc5.zip","MetadataLink":"https://pubs.usgs.gov/ds/487/metadata/DEM_fullmetadata.xml","DataType":"rio","DataSource":"usgs_ds487","Info":"USGS DS 487, 3 m coastal DEM","LastUpdate":"20260915181318"},"geometry":{"type":"Polygon","coordinates":[[[-117.76978493299174,33.57319911354779],[-117.76978493299174,33.7506420425195],[-118.00729330543844,33.7506420425195],[-118.00729330543844,33.57319911354779],[-117.76978493299174,33.57319911354779]]]}},{"type":"Feature","properties":{"Name":"oc6","ID":"oc6","Agency":"USGS","DataLink":"https://pubs.usgs.gov/ds/487/data/DEMs/oc6.zip","MetadataLink":"https://pubs.usgs.gov/ds/487/metadata/DEM_fullmetadata.xml","DataType":"rio","DataSource":"usgs_ds487","Info":"USGS DS 487, 3 m coastal DEM","LastUpdate":"20260915181340"},"geometry":{"type":"Polygon","coordinates":[[[-117.89412186694817,33.613228071757206],[-117.89412186694817,33.78457755982785],[-118.09938031772225,33.78457755982785],[-118.09938031772225,33.613228071757206],[-117.89412186694817,33.613228071757206]]]}},{"type":"Feature","properties":{"Name":"oc7","ID":"oc7","Agency":"USGS","DataLink":"https://pubs.usgs.gov/ds/487/data/DEMs/oc7.zip","MetadataLink":"https://pubs.usgs.gov/ds/487/metadata/DEM_fullmetadata.xml","DataType":"rio","DataSource":"usgs_ds487","Info":"USGS DS 487, 3 m coastal DEM","LastUpdate":"20260915181403"},"geometry":{"type":"Polygon","coordinates":[[[-117.94089132020571,33.66552062141728],[-117.94089132020571,33.87809950275769],[-118.15622357839388,33.87809950275769],[-118.15622357839388,33.66552062141728],[-117.94089132020571,33.66552062141728]]]}},{"type":"Feature","properties":{"Name":"sb1","ID":"sb1","Agency":"USGS","DataLink":"https://pubs.usgs.gov/ds/487/data/DEMs/sb1.zip","MetadataLink":"https://pubs.usgs.gov/ds/487/metadata/DEM_fullmetadata.xml","DataType":"rio","DataSource":"usgs_ds487","Info":"USGS DS 487, 3 m coastal DEM","LastUpdate":"20260915181420"},"geometry":{"type":"Polygon","coordinates":[[[-119.44936124771858,34.35841225669085],[-119.44936124771858,34.444376868785405],[-119.6383318174351,34.444376868785405],[-119.6383318174351,34.35841225669085],[-119.44936124771858,34.35841225669085]]]}},{"type":"Feature","properties":{"Name":"sb10","ID":"sb10","Agency":"USGS","DataLink":"https://pubs.usgs.gov/ds/487/data/DEMs/sb10.zip","MetadataLink":"https://pubs.usgs.gov/ds/487/metadata/DEM_fullmetadata.xml","DataType":"rio","DataSource":"usgs_ds487","Info":"USGS DS 487, 3 m coastal DEM","LastUpdate":"20260915181428"},"geometry":{"type":"Polygon","coordinates":[[[-120.40799948996731,34.41853829594199],[-120.40799948996731,34.497063947087575],[-120.514765439521,34.497063947087575],[-120.514765439521,34.41853829594199],[-120.40799948996731,34.41853829594199]]]}},{"type":"Feature","properties":{"Name":"sb2","ID":"sb2","Agency":"USGS","DataLink":"https://pubs.usgs.gov/ds/487/data/DEMs/sb2.zip","MetadataLink":"https://pubs.usgs.gov/ds/487/metadata/DEM_fullmetadata.xml","DataType":"rio","DataSource":"usgs_ds487","Info":"USGS DS 487, 3 m coastal DEM","LastUpdate":"20260915181435"},"geometry":{"type":"Polygon","coordinates":[[[-119.62339589795693,34.385726448498815],[-119.62339589795693,34.43380066683484],[-119.72838526835682,34.43380066683484],[-119.72838526835682,34.385726448498815],[-119.62339589795693,34.385726448498815]]]}},{"type":"Feature","properties":{"Name":"sb3","ID":"sb3","Agency":"USGS","DataLink":"https://pubs.usgs.gov/ds/487/data/DEMs/sb3.zip","MetadataLink":"https://pubs.usgs.gov/ds/487/metadata/DEM_fullmetadata.xml","DataType":"rio","DataSource":"usgs_ds487","Info":"USGS DS 487, 3 m coastal DEM","LastUpdate":"20260915181445"},"geometry":{"type":"Polygon","coordinates":[[[-119.71525567958584,34.38260111821357],[-119.71525567958584,34.451567122884846],[-119.83190246039706,34.451567122884846],[-119.83190246039706,34.38260111821357],[-119.71525567958584,34.38260111821357]]]}},{"type":"Feature","properties":{"Name":"sb4","ID":"sb4","Agency":"USGS","DataLink":"https://pubs.usgs.gov/ds/487/data/DEMs/sb4.zip","MetadataLink":"https://pubs.usgs.gov/ds/487/metadata/DEM_fullmetadata.xml","DataType":"rio","DataSource":"usgs_ds487","Info":"USGS DS 487, 3 m coastal DEM","LastUpdate":"20260915181459"},"geometry":{"type":"Polygon","coordinates":[[[-119.81691958613766,34.390547377269506],[-119.81691958613766,34.46245218090804],[-119.9252083406285,34.46245218090804],[-119.9252083406285,34.390547377269506],[-119.81691958613766,34.390547377269506]]]}},{"type":"Feature","properties":{"Name":"sb5","ID":"sb5","Agency":"USGS","DataLink":"https://pubs.usgs.gov/ds/487/data/DEMs/sb5.zip","MetadataLink":"https://pubs.usgs.gov/ds/487/metadata/DEM_fullmetadata.xml","DataType":"rio","DataSource":"usgs_ds487","Info":"USGS DS 487, 3 m coastal DEM","LastUpdate":"20260915181508"},"geometry":{"type":"Polygon","coordinates":[[[-119.90441578554004,34.40668108294335],[-119.90441578554004,34.475263582320835],[-120.02515215895471,34.475263582320835],[-120.02515215895471,34.40668108294335],[-119.90441578554004,34.40668108294335]]]}},{"type":"Feature","properties":{"Name":"sb6","ID":"sb6","Agency":"USGS","DataLink":"https://pubs.usgs.gov/ds/487/data/DEMs/sb6.zip","MetadataLink":"https://pubs.usgs.gov/ds/487/metadata/DEM_fullmetadata.xml","DataType":"rio","DataSource":"usgs_ds487","Info":"USGS DS 487, 3 m coastal DEM","LastUpdate":"20260915181515"},"geometry":{"type":"Polygon","coordinates":[[[-120.00900491926663,34.4478900886902],[-120.00900491926663,34.482177578570045],[-120.11802791842837,34.482177578570045],[-120.11802791842837,34.4478900886902],[-120.00900491926663,34.4478900886902]]]}},{"type":"Feature","properties":{"Name":"sb7","ID":"sb7","Agency":"USGS","DataLink":"https://pubs.usgs.gov/ds/487/data/DEMs/sb7.zip","MetadataLink":"https://pubs.usgs.gov/ds/487/metadata/DEM_fullmetadata.xml","DataType":"rio","DataSource":"usgs_ds487","Info":"USGS DS 487, 3 m coastal DEM","LastUpdate":"20260915181521"},"geometry":{"type":"Polygon","coordinates":[[[-120.10899352853053,34.454547674666735],[-120.10899352853053,34.48205781316145],[-120.22388277863305,34.48205781316145],[-120.22388277863305,34.454547674666735],[-120.10899352853053,34.454547674666735]]]}},{"type":"Feature","properties":{"Name":"sb8","ID":"sb8","Agency":"USGS","DataLink":"https://pubs.usgs.gov/ds/487/data/DEMs/sb8.zip","MetadataLink":"https://pubs.usgs.gov/ds/487/metadata/DEM_fullmetadata.xml","DataType":"rio","DataSource":"usgs_ds487","Info":"USGS DS 487, 3 m coastal DEM","LastUpdate":"20260915181528"},"geometry":{"type":"Polygon","coordinates":[[[-120.21762126841183,34.44391722671696],[-120.21762126841183,34.48416105782374],[-120.32884780365504,34.48416105782374],[-120.32884780365504,34.44391722671696],[-120.21762126841183,34.44391722671696]]]}},{"type":"Feature","properties":{"Name":"sb9","ID":"sb9","Agency":"USGS","DataLink":"https://pubs.usgs.gov/ds/487/data/DEMs/sb9.zip","MetadataLink":"https://pubs.usgs.gov/ds/487/metadata/DEM_fullmetadata.xml","DataType":"rio","DataSource":"usgs_ds487","Info":"USGS DS 487, 3 m coastal DEM","LastUpdate":"20260915181536"},"geometry":{"type":"Polygon","coordinates":[[[-120.32018171890051,34.4300580001031],[-120.32018171890051,34.47131148702381],[-120.43256878494712,34.47131148702381],[-120.43256878494712,34.4300580001031],[-120.32018171890051,34.4300580001031]]]}},{"type":"Feature","properties":{"Name":"sd1","ID":"sd1","Agency":"USGS","DataLink":"https://pubs.usgs.gov/ds/487/data/DEMs/sd1.zip","MetadataLink":"https://pubs.usgs.gov/ds/487/metadata/DEM_fullmetadata.xml","DataType":"rio","DataSource":"usgs_ds487","Info":"USGS DS 487, 3 m coastal DEM","LastUpdate":"20260915181604"},"geometry":{"type":"Polygon","coordinates":[[[-117.0293434644594,32.5191521498978],[-117.0293434644594,32.632837416828615],[-117.1828008939571,32.632837416828615],[-117.1828008939571,32.5191521498978],[-117.0293434644594,32.5191521498978]]]}},{"type":"Feature","properties":{"Name":"sd10","ID":"sd10","Agency":"USGS","DataLink":"https://pubs.usgs.gov/ds/487/data/DEMs/sd10.zip","MetadataLink":"https://pubs.usgs.gov/ds/487/metadata/DEM_fullmetadata.xml","DataType":"rio","DataSource":"usgs_ds487","Info":"USGS DS 487, 3 m coastal DEM","LastUpdate":"20260915181617"},"geometry":{"type":"Polygon","coordinates":[[[-117.41784027609539,33.23695684090675],[-117.41784027609539,33.34150482704222],[-117.53626344008556,33.34150482704222],[-117.53626344008556,33.23695684090675],[-117.41784027609539,33.23695684090675]]]}},{"type":"Feature","properties":{"Name":"sd11","ID":"sd11","Agency":"USGS","DataLink":"https://pubs.usgs.gov/ds/487/data/DEMs/sd11.zip","MetadataLink":"https://pubs.usgs.gov/ds/487/metadata/DEM_fullmetadata.xml","DataType":"rio","DataSource":"usgs_ds487","Info":"USGS DS 487, 3 m coastal DEM","LastUpdate":"20260915181632"},"geometry":{"type":"Polygon","coordinates":[[[-117.48558233959348,33.303931563261834],[-117.48558233959348,33.42114796096423],[-117.62543024604388,33.42114796096423],[-117.62543024604388,33.303931563261834],[-117.48558233959348,33.303931563261834]]]}},{"type":"Feature","properties":{"Name":"sd2","ID":"sd2","Agency":"USGS","DataLink":"https://pubs.usgs.gov/ds/487/data/DEMs/sd2.zip","MetadataLink":"https://pubs.usgs.gov/ds/487/metadata/DEM_fullmetadata.xml","DataType":"rio","DataSource":"usgs_ds487","Info":"USGS DS 487, 3 m coastal DEM","LastUpdate":"20260915181717"},"geometry":{"type":"Polygon","coordinates":[[[-117.0296674455514,32.61335245043865],[-117.0296674455514,32.732625797519084],[-117.27938364993817,32.732625797519084],[-117.27938364993817,32.61335245043865],[-117.0296674455514,32.61335245043865]]]}},{"type":"Feature","properties":{"Name":"sd3","ID":"sd3","Agency":"USGS","DataLink":"https://pubs.usgs.gov/ds/487/data/DEMs/sd3.zip","MetadataLink":"https://pubs.usgs.gov/ds/487/metadata/DEM_fullmetadata.xml","DataType":"rio","DataSource":"usgs_ds487","Info":"USGS DS 487, 3 m coastal DEM","LastUpdate":"20260915181749"},"geometry":{"type":"Polygon","coordinates":[[[-117.08840098534469,32.70142620493628],[-117.08840098534469,32.81255558091397],[-117.2928398988107,32.81255558091397],[-117.2928398988107,32.70142620493628],[-117.08840098534469,32.70142620493628]]]}},{"type":"Feature","properties":{"Name":"sd4","ID":"sd4","Agency":"USGS","DataLink":"https://pubs.usgs.gov/ds/487/data/DEMs/sd4.zip","MetadataLink":"https://pubs.usgs.gov/ds/487/metadata/DEM_fullmetadata.xml","DataType":"rio","DataSource":"usgs_ds487","Info":"USGS DS 487, 3 m coastal DEM","LastUpdate":"20260915181802"},"geometry":{"type":"Polygon","coordinates":[[[-117.20370448801195,32.78519543966189],[-117.20370448801195,32.865782049651074],[-117.30838997323968,32.865782049651074],[-117.30838997323968,32.78519543966189],[-117.20370448801195,32.78519543966189]]]}},{"type":"Feature","properties":{"Name":"sd5","ID":"sd5","Agency":"USGS","DataLink":"https://pubs.usgs.gov/ds/487/data/DEMs/sd5.zip","MetadataLink":"https://pubs.usgs.gov/ds/487/metadata/DEM_fullmetadata.xml","DataType":"rio","DataSource":"usgs_ds487","Info":"USGS DS 487, 3 m coastal DEM","LastUpdate":"20260915181829"},"geometry":{"type":"Polygon","coordinates":[[[-117.1726137400423,32.843350897579],[-117.1726137400423,32.957155357948864],[-117.32764557770265,32.957155357948864],[-117.32764557770265,32.843350897579],[-117.1726137400423,32.843350897579]]]}},{"type":"Feature","properties":{"Name":"sd6","ID":"sd6","Agency":"USGS","DataLink":"https://pubs.usgs.gov/ds/487/data/DEMs/sd6.zip","MetadataLink":"https://pubs.usgs.gov/ds/487/metadata/DEM_fullmetadata.xml","DataType":"rio","DataSource":"usgs_ds487","Info":"USGS DS 487, 3 m coastal DEM","LastUpdate":"20260915181854"},"geometry":{"type":"Polygon","coordinates":[[[-117.15179820600122,32.93622642298866],[-117.15179820600122,33.06499521310516],[-117.30666520025132,33.06499521310516],[-117.30666520025132,32.93622642298866],[-117.15179820600122,32.93622642298866]]]}},{"type":"Feature","properties":{"Name":"sd7","ID":"sd7","Agency":"USGS","DataLink":"https://pubs.usgs.gov/ds/487/data/DEMs/sd7.zip","MetadataLink":"https://pubs.usgs.gov/ds/487/metadata/DEM_fullmetadata.xml","DataType":"rio","DataSource":"usgs_ds487","Info":"USGS DS 487, 3 m coastal DEM","LastUpdate":"20260915181912"},"geometry":{"type":"Polygon","coordinates":[[[-117.22188377527792,33.02183291090902],[-117.22188377527792,33.134401737398576],[-117.34097558212791,33.134401737398576],[-117.34097558212791,33.02183291090902],[-117.22188377527792,33.02183291090902]]]}},{"type":"Feature","properties":{"Name":"sd8","ID":"sd8","Agency":"USGS","DataLink":"https://pubs.usgs.gov/ds/487/data/DEMs/sd8.zip","MetadataLink":"https://pubs.usgs.gov/ds/487/metadata/DEM_fullmetadata.xml","DataType":"rio","DataSource":"usgs_ds487","Info":"USGS DS 487, 3 m coastal DEM","LastUpdate":"20260915181930"},"geometry":{"type":"Polygon","coordinates":[[[-117.26860727435998,33.10667698311454],[-117.26860727435998,33.21431691119794],[-117.41524649324926,33.21431691119794],[-117.41524649324926,33.10667698311454],[-117.26860727435998,33.10667698311454]]]}},{"type":"Feature","properties":{"Name":"sd9","ID":"sd9","Agency":"USGS","DataLink":"https://pubs.usgs.gov/ds/487/data/DEMs/sd9.zip","MetadataLink":"https://pubs.usgs.gov/ds/487/metadata/DEM_fullmetadata.xml","DataType":"rio","DataSource":"usgs_ds487","Info":"USGS DS 487, 3 m coastal DEM","LastUpdate":"20260915181956"},"geometry":{"type":"Polygon","coordinates":[[[-117.26655543301298,33.17609482085757],[-117.26655543301298,33.321266887725],[-117.46811619796775,33.321266887725],[-117.46811619796775,33.17609482085757],[-117.26655543301298,33.17609482085757]]]}},{"type":"Feature","properties":{"Name":"ve1","ID":"ve1","Agency":"USGS","DataLink":"https://pubs.usgs.gov/ds/487/data/DEMs/ve1.zip","MetadataLink":"https://pubs.usgs.gov/ds/487/metadata/DEM_fullmetadata.xml","DataType":"rio","DataSource":"usgs_ds487","Info":"USGS DS 487, 3 m coastal DEM","LastUpdate":"20260915182004"},"geometry":{"type":"Polygon","coordinates":[[[-118.9367109501012,34.027347801959884],[-118.9367109501012,34.10554071549522],[-119.08675918470087,34.10554071549522],[-119.08675918470087,34.027347801959884],[-118.9367109501012,34.027347801959884]]]}},{"type":"Feature","properties":{"Name":"ve2","ID":"ve2","Agency":"USGS","DataLink":"https://pubs.usgs.gov/ds/487/data/DEMs/ve2.zip","MetadataLink":"https://pubs.usgs.gov/ds/487/metadata/DEM_fullmetadata.xml","DataType":"rio","DataSource":"usgs_ds487","Info":"USGS DS 487, 3 m coastal DEM","LastUpdate":"20260915182030"},"geometry":{"type":"Polygon","coordinates":[[[-119.01049625018885,34.06769247185046],[-119.01049625018885,34.230323584905875],[-119.18820712167843,34.230323584905875],[-119.18820712167843,34.06769247185046],[-119.01049625018885,34.06769247185046]]]}},{"type":"Feature","properties":{"Name":"ve3","ID":"ve3","Agency":"USGS","DataLink":"https://pubs.usgs.gov/ds/487/data/DEMs/ve3.zip","MetadataLink":"https://pubs.usgs.gov/ds/487/metadata/DEM_fullmetadata.xml","DataType":"rio","DataSource":"usgs_ds487","Info":"USGS DS 487, 3 m coastal DEM","LastUpdate":"20260915182047"},"geometry":{"type":"Polygon","coordinates":[[[-119.10231999537095,34.088927193477524],[-119.10231999537095,34.24411942274247],[-119.29077356914264,34.24411942274247],[-119.29077356914264,34.088927193477524],[-119.10231999537095,34.088927193477524]]]}},{"type":"Feature","properties":{"Name":"ve4","ID":"ve4","Agency":"USGS","DataLink":"https://pubs.usgs.gov/ds/487/data/DEMs/ve4.zip","MetadataLink":"https://pubs.usgs.gov/ds/487/metadata/DEM_fullmetadata.xml","DataType":"rio","DataSource":"usgs_ds487","Info":"USGS DS 487, 3 m coastal DEM","LastUpdate":"20260915182109"},"geometry":{"type":"Polygon","coordinates":[[[-119.16001415820992,34.14352780052658],[-119.16001415820992,34.29956721145362],[-119.36173493492784,34.29956721145362],[-119.36173493492784,34.14352780052658],[-119.16001415820992,34.14352780052658]]]}},{"type":"Feature","properties":{"Name":"ve5","ID":"ve5","Agency":"USGS","DataLink":"https://pubs.usgs.gov/ds/487/data/DEMs/ve5.zip","MetadataLink":"https://pubs.usgs.gov/ds/487/metadata/DEM_fullmetadata.xml","DataType":"rio","DataSource":"usgs_ds487","Info":"USGS DS 487, 3 m coastal DEM","LastUpdate":"20260915182121"},"geometry":{"type":"Polygon","coordinates":[[[-119.26352500135147,34.22747916175068],[-119.26352500135147,34.34166253930847],[-119.39294050867062,34.34166253930847],[-119.39294050867062,34.22747916175068],[-119.26352500135147,34.22747916175068]]]}},{"type":"Feature","properties":{"Name":"ve6","ID":"ve6","Agency":"USGS","DataLink":"https://pubs.usgs.gov/ds/487/data/DEMs/ve6.zip","MetadataLink":"https://pubs.usgs.gov/ds/487/metadata/DEM_fullmetadata.xml","DataType":"rio","DataSource":"usgs_ds487","Info":"USGS DS 487, 3 m coastal DEM","LastUpdate":"20260915182130"},"geometry":{"type":"Polygon","coordinates":[[[-119.35025639888642,34.29264992258497],[-119.35025639888642,34.390478653032666],[-119.49517079518448,34.390478653032666],[-119.49517079518448,34.29264992258497],[-119.35025639888642,34.29264992258497]]]}}]}
