{"type":"FeatureCollection","name":"usgs_sim3324","features":[{"type":"Feature","properties":{"Name":"MV1316_backscatter","ID":"MV1316_backscatter","Agency":"USGS","DataLink":"https://pubs.usgs.gov/sim/3324/downloads/data/backscatter/MV1316_backscatter.zip","MetadataLink":"https://pubs.usgs.gov/sim/3324/downloads/metadata/Bathymetry_Inner_Continental_Borderland_metadata.txt","DataType":"raster","DataSource":"usgs_sim3324","Info":"USGS SIM 3324: MV1316_backscatter","LastUpdate":"20260922143209"},"geometry":{"type":"Polygon","coordinates":[[[-117.3,32.6],[-117.3,33.7],[-118.35,33.7],[-118.35,32.6],[-117.3,32.6]]]}},{"type":"Feature","properties":{"Name":"MV1316_25mbathy","ID":"MV1316_25mbathy","Agency":"USGS","DataLink":"https://pubs.usgs.gov/sim/3324/downloads/data/bathymetry/MV1316_25mbathy.zip","MetadataLink":"https://pubs.usgs.gov/sim/3324/downloads/metadata/Bathymetry_Inner_Continental_Borderland_metadata.txt","DataType":"ascii","DataSource":"usgs_sim3324","Info":"USGS SIM 3324: MV1316_25mbathy","LastUpdate":"20260922143210"},"geometry":{"type":"Polygon","coordinates":[[[-117.3,32.6],[-117.3,33.7],[-118.35,33.7],[-118.35,32.6],[-117.3,32.6]]]}},{"type":"Feature","properties":{"Name":"MV1316_25mshd","ID":"MV1316_25mshd","Agency":"USGS","DataLink":"https://pubs.usgs.gov/sim/3324/downloads/data/bathymetry/MV1316_25mshd.zip","MetadataLink":"https://pubs.usgs.gov/sim/3324/downloads/metadata/Bathymetry_Inner_Continental_Borderland_metadata.txt","DataType":"raster","DataSource":"usgs_sim3324","Info":"USGS SIM 3324: MV1316_25mshd","LastUpdate":"20260922143210"},"geometry":{"type":"Polygon","coordinates":[[[-117.3,32.6],[-117.3,33.7],[-118.35,33.7],[-118.35,32.6],[-117.3,32.6]]]}},{"type":"Feature","properties":{"Name":"S_CA_25mbathy","ID":"S_CA_25mbathy","Agency":"USGS","DataLink":"https://pubs.usgs.gov/sim/3324/downloads/data/bathymetry/S_CA_25mbathy.zip","MetadataLink":"https://pubs.usgs.gov/sim/3324/downloads/metadata/Bathymetry_Inner_Continental_Borderland_metadata.txt","DataType":"ascii","DataSource":"usgs_sim3324","Info":"USGS SIM 3324: S_CA_25mbathy","LastUpdate":"20260922143211"},"geometry":{"type":"Polygon","coordinates":[[[-117.3,32.6],[-117.3,33.7],[-118.35,33.7],[-118.35,32.6],[-117.3,32.6]]]}},{"type":"Feature","properties":{"Name":"S_CA_25mshd","ID":"S_CA_25mshd","Agency":"USGS","DataLink":"https://pubs.usgs.gov/sim/3324/downloads/data/bathymetry/S_CA_25mshd.zip","MetadataLink":"https://pubs.usgs.gov/sim/3324/downloads/metadata/Bathymetry_Inner_Continental_Borderland_metadata.txt","DataType":"raster","DataSource":"usgs_sim3324","Info":"USGS SIM 3324: S_CA_25mshd","LastUpdate":"20260922143211"},"geometry":{"type":"Polygon","coordinates":[[[-117.3,32.6],[-117.3,33.7],[-118.35,33.7],[-118.35,32.6],[-117.3,32.6]]]}},{"type":"Feature","properties":{"Name":"oceansideshade","ID":"oceansideshade","Agency":"USGS","DataLink":"https://pubs.usgs.gov/sim/3324/downloads/data/bathymetry/oceansideshade.zip","MetadataLink":"https://pubs.usgs.gov/sim/3324/downloads/metadata/Bathymetry_Inner_Continental_Borderland_metadata.txt","DataType":"raster","DataSource":"usgs_sim3324","Info":"USGS SIM 3324: oceansideshade","LastUpdate":"20260922143212"},"geometry":{"type":"Polygon","coordinates":[[[-117.3,32.6],[-117.3,33.7],[-118.35,33.7],[-118.35,32.6],[-117.3,32.6]]]}},{"type":"Feature","properties":{"Name":"overview_persp.tif","ID":"overview_persp.tif","Agency":"USGS","DataLink":"https://pubs.usgs.gov/sim/3324/downloads/figures/overview_persp.tif.zip","MetadataLink":"https://pubs.usgs.gov/sim/3324/downloads/metadata/Bathymetry_Inner_Continental_Borderland_metadata.txt","DataType":"raster","DataSource":"usgs_sim3324","Info":"USGS SIM 3324: overview_persp.tif","LastUpdate":"20260922143213"},"geometry":{"type":"Polygon","coordinates":[[[-117.3,32.6],[-117.3,33.7],[-118.35,33.7],[-118.35,32.6],[-117.3,32.6]]]}},{"type":"Feature","properties":{"Name":"BAT_SCSR_SANDAG","ID":"BAT_SCSR_SANDAG","Agency":"USGS","DataLink":"ftp://ftp.dfg.ca.gov/R7_MR/BATHYMETRY/BAT_SCSR_SANDAG.zip","MetadataLink":"https://pubs.usgs.gov/sim/3324/downloads/metadata/Bathymetry_Inner_Continental_Borderland_metadata.txt","DataType":"ascii","DataSource":"usgs_sim3324","Info":"USGS SIM 3324: BAT_SCSR_SANDAG","LastUpdate":"20260922143213"},"geometry":{"type":"Polygon","coordinates":[[[-117.3,32.6],[-117.3,33.7],[-118.35,33.7],[-118.35,32.6],[-117.3,32.6]]]}}]}
