{"type":"FeatureCollection","name":"usgs_ds702","features":[{"type":"Feature","properties":{"Name":"block_a_bathy","ID":"block_a_bathy","Agency":"USGS","DataLink":"https://pubs.usgs.gov/ds/702/data/bathymetry/block_a_bathy.zip","MetadataLink":"https://pubs.usgs.gov/ds/702/metadata/bathymetry_metadata/bathy_metadata.xml","DataType":"survey","DataSource":"usgs_ds702","Info":"USGS DS 702, eastern Santa Barbara Channel bathymetry","LastUpdate":"20260921180857"},"geometry":{"type":"Polygon","coordinates":[[[-119.63676671696263,34.30243314424724],[-119.63676671696263,34.36861519468952],[-119.74638104408193,34.36861519468952],[-119.74638104408193,34.30243314424724],[-119.63676671696263,34.30243314424724]]]}},{"type":"Feature","properties":{"Name":"block_b_bathy","ID":"block_b_bathy","Agency":"USGS","DataLink":"https://pubs.usgs.gov/ds/702/data/bathymetry/block_b_bathy.zip","MetadataLink":"https://pubs.usgs.gov/ds/702/metadata/bathymetry_metadata/bathy_metadata.xml","DataType":"survey","DataSource":"usgs_ds702","Info":"USGS DS 702, eastern Santa Barbara Channel bathymetry","LastUpdate":"20260921180910"},"geometry":{"type":"Polygon","coordinates":[[[-119.47180933074293,34.298961172715316],[-119.47180933074293,34.33085012509918],[-119.63903804750487,34.33085012509918],[-119.63903804750487,34.298961172715316],[-119.47180933074293,34.298961172715316]]]}},{"type":"Feature","properties":{"Name":"block_c_bathy","ID":"block_c_bathy","Agency":"USGS","DataLink":"https://pubs.usgs.gov/ds/702/data/bathymetry/block_c_bathy.zip","MetadataLink":"https://pubs.usgs.gov/ds/702/metadata/bathymetry_metadata/bathy_metadata.xml","DataType":"survey","DataSource":"usgs_ds702","Info":"USGS DS 702, eastern Santa Barbara Channel bathymetry","LastUpdate":"20260921180929"},"geometry":{"type":"Polygon","coordinates":[[[-119.4205962351558,34.270824828893986],[-119.4205962351558,34.305457531197845],[-119.59396333807443,34.305457531197845],[-119.59396333807443,34.270824828893986],[-119.4205962351558,34.270824828893986]]]}},{"type":"Feature","properties":{"Name":"block_d_bathy","ID":"block_d_bathy","Agency":"USGS","DataLink":"https://pubs.usgs.gov/ds/702/data/bathymetry/block_d_bathy.zip","MetadataLink":"https://pubs.usgs.gov/ds/702/metadata/bathymetry_metadata/bathy_metadata.xml","DataType":"survey","DataSource":"usgs_ds702","Info":"USGS DS 702, eastern Santa Barbara Channel bathymetry","LastUpdate":"20260921180945"},"geometry":{"type":"Polygon","coordinates":[[[-119.35115977223174,34.23457228772794],[-119.35115977223174,34.27847968147034],[-119.55354603814223,34.27847968147034],[-119.55354603814223,34.23457228772794],[-119.35115977223174,34.23457228772794]]]}},{"type":"Feature","properties":{"Name":"block_e_bathy","ID":"block_e_bathy","Agency":"USGS","DataLink":"https://pubs.usgs.gov/ds/702/data/bathymetry/block_e_bathy.zip","MetadataLink":"https://pubs.usgs.gov/ds/702/metadata/bathymetry_metadata/bathy_metadata.xml","DataType":"survey","DataSource":"usgs_ds702","Info":"USGS DS 702, eastern Santa Barbara Channel bathymetry","LastUpdate":"20260921181001"},"geometry":{"type":"Polygon","coordinates":[[[-119.30990163949917,34.18386806274705],[-119.30990163949917,34.24122959480886],[-119.49620316076981,34.24122959480886],[-119.49620316076981,34.18386806274705],[-119.30990163949917,34.18386806274705]]]}},{"type":"Feature","properties":{"Name":"block_f_bathy","ID":"block_f_bathy","Agency":"USGS","DataLink":"https://pubs.usgs.gov/ds/702/data/bathymetry/block_f_bathy.zip","MetadataLink":"https://pubs.usgs.gov/ds/702/metadata/bathymetry_metadata/bathy_metadata.xml","DataType":"survey","DataSource":"usgs_ds702","Info":"USGS DS 702, eastern Santa Barbara Channel bathymetry","LastUpdate":"20260921181009"},"geometry":{"type":"Polygon","coordinates":[[[-119.28511718985035,34.13904213735657],[-119.28511718985035,34.18940534432477],[-119.41212964358745,34.18940534432477],[-119.41212964358745,34.13904213735657],[-119.28511718985035,34.13904213735657]]]}},{"type":"Feature","properties":{"Name":"block_g_bathy","ID":"block_g_bathy","Agency":"USGS","DataLink":"https://pubs.usgs.gov/ds/702/data/bathymetry/block_g_bathy.zip","MetadataLink":"https://pubs.usgs.gov/ds/702/metadata/bathymetry_metadata/bathy_metadata.xml","DataType":"survey","DataSource":"usgs_ds702","Info":"USGS DS 702, eastern Santa Barbara Channel bathymetry","LastUpdate":"20260921181011"},"geometry":{"type":"Polygon","coordinates":[[[-119.27108337382865,34.117722060060686],[-119.27108337382865,34.14396629677839],[-119.3220062924663,34.14396629677839],[-119.3220062924663,34.117722060060686],[-119.27108337382865,34.117722060060686]]]}},{"type":"Feature","properties":{"Name":"sbchannel_10mbathy","ID":"sbchannel_10mbathy","Agency":"USGS","DataLink":"https://pubs.usgs.gov/ds/702/data/bathymetry/sbchannel_10mbathy.zip","MetadataLink":"https://pubs.usgs.gov/ds/702/metadata/merged_SBChannel_metadata/merged_SBChannel_bathy_metadata.xml","DataType":"merged","DataSource":"usgs_ds702","Info":"USGS DS 702, 10 m merged Santa Barbara Channel DTM","LastUpdate":"20260921181122"},"geometry":{"type":"Polygon","coordinates":[[[-119.19885924188902,34.003525221312806],[-119.19885924188902,34.5279673173175],[-120.49726135134117,34.5279673173175],[-120.49726135134117,34.003525221312806],[-119.19885924188902,34.003525221312806]]]}}]}
