{"type":"FeatureCollection","name":"usgs_of1221","features":[{"type":"Feature","properties":{"Name":"dumebat","ID":"dumebat","Agency":"USGS","DataLink":"http://pubs.usgs.gov/of/2004/1221/data/grid/dumebat.tgz","MetadataLink":"https://pubs.usgs.gov/of/2004/1221/","DataType":"grd","DataSource":"usgs_of1221","Info":"USGS DS 1221, 4 m coastal DEM","LastUpdate":"20260916114408"},"geometry":{"type":"Polygon","coordinates":[[[-118.68092754248724,33.9895787153092],[-118.68092754248724,34.00959700791818],[-118.816116223636,34.00959700791818],[-118.816116223636,33.9895787153092],[-118.68092754248724,33.9895787153092]]]}},{"type":"Feature","properties":{"Name":"dumebat","ID":"dumebat","Agency":"USGS","DataLink":"http://pubs.usgs.gov/of/2004/1221/data/xyz/dumebat.zip","MetadataLink":"https://pubs.usgs.gov/of/2004/1221/","DataType":"xyz","DataSource":"usgs_of1221","Info":"USGS DS 1221, 4 m coastal DEM","LastUpdate":"20260916114408"},"geometry":{"type":"Polygon","coordinates":[[[-118.68092754248724,33.9895787153092],[-118.68092754248724,34.00959700791818],[-118.816116223636,34.00959700791818],[-118.816116223636,33.9895787153092],[-118.68092754248724,33.9895787153092]]]}},{"type":"Feature","properties":{"Name":"delreybat","ID":"delreybat","Agency":"USGS","DataLink":"http://pubs.usgs.gov/of/2004/1221/data/grid/delreybat.tgz","MetadataLink":"https://pubs.usgs.gov/of/2004/1221/","DataType":"grd","DataSource":"usgs_of1221","Info":"USGS DS 1221, 4 m coastal DEM","LastUpdate":"20260916114410"},"geometry":{"type":"Polygon","coordinates":[[[-118.43303667125846,33.88438125242494],[-118.43303667125846,33.98909195558395],[-118.52041115099358,33.98909195558395],[-118.52041115099358,33.88438125242494],[-118.43303667125846,33.88438125242494]]]}},{"type":"Feature","properties":{"Name":"delreybat","ID":"delreybat","Agency":"USGS","DataLink":"http://pubs.usgs.gov/of/2004/1221/data/xyz/delreybat.zip","MetadataLink":"https://pubs.usgs.gov/of/2004/1221/","DataType":"xyz","DataSource":"usgs_of1221","Info":"USGS DS 1221, 4 m coastal DEM","LastUpdate":"20260916114410"},"geometry":{"type":"Polygon","coordinates":[[[-118.43303667125846,33.88438125242494],[-118.43303667125846,33.98909195558395],[-118.52041115099358,33.98909195558395],[-118.52041115099358,33.88438125242494],[-118.43303667125846,33.88438125242494]]]}},{"type":"Feature","properties":{"Name":"redonbat","ID":"redonbat","Agency":"USGS","DataLink":"http://pubs.usgs.gov/of/2004/1221/data/grid/redonbat.tgz","MetadataLink":"https://pubs.usgs.gov/of/2004/1221/","DataType":"grd","DataSource":"usgs_of1221","Info":"USGS DS 1221, 4 m coastal DEM","LastUpdate":"20260916114416"},"geometry":{"type":"Polygon","coordinates":[[[-118.39117987333654,33.77505807388888],[-118.39117987333654,33.9026022370465],[-118.46632969994357,33.9026022370465],[-118.46632969994357,33.77505807388888],[-118.39117987333654,33.77505807388888]]]}},{"type":"Feature","properties":{"Name":"redonbat","ID":"redonbat","Agency":"USGS","DataLink":"http://pubs.usgs.gov/of/2004/1221/data/xyz/redonbat.zip","MetadataLink":"https://pubs.usgs.gov/of/2004/1221/","DataType":"xyz","DataSource":"usgs_of1221","Info":"USGS DS 1221, 4 m coastal DEM","LastUpdate":"20260916114416"},"geometry":{"type":"Polygon","coordinates":[[[-118.39117987333654,33.77505807388888],[-118.39117987333654,33.9026022370465],[-118.46632969994357,33.9026022370465],[-118.46632969994357,33.77505807388888],[-118.39117987333654,33.77505807388888]]]}},{"type":"Feature","properties":{"Name":"pvbat","ID":"pvbat","Agency":"USGS","DataLink":"http://pubs.usgs.gov/of/2004/1221/data/grid/pvbat.tgz","MetadataLink":"https://pubs.usgs.gov/of/2004/1221/","DataType":"grd","DataSource":"usgs_of1221","Info":"USGS DS 1221, 4 m coastal DEM","LastUpdate":"20260916114424"},"geometry":{"type":"Polygon","coordinates":[[[-118.30540614936783,33.66809107016832],[-118.30540614936783,33.797130586440296],[-118.47351958153993,33.797130586440296],[-118.47351958153993,33.66809107016832],[-118.30540614936783,33.66809107016832]]]}},{"type":"Feature","properties":{"Name":"pvbat","ID":"pvbat","Agency":"USGS","DataLink":"http://pubs.usgs.gov/of/2004/1221/data/xyz/pvbat.zip","MetadataLink":"https://pubs.usgs.gov/of/2004/1221/","DataType":"xyz","DataSource":"usgs_of1221","Info":"USGS DS 1221, 4 m coastal DEM","LastUpdate":"20260916114424"},"geometry":{"type":"Polygon","coordinates":[[[-118.30540614936783,33.66809107016832],[-118.30540614936783,33.797130586440296],[-118.47351958153993,33.797130586440296],[-118.47351958153993,33.66809107016832],[-118.30540614936783,33.66809107016832]]]}},{"type":"Feature","properties":{"Name":"nthslfbat","ID":"nthslfbat","Agency":"USGS","DataLink":"http://pubs.usgs.gov/of/2004/1221/data/grid/nthslfbat.tgz","MetadataLink":"https://pubs.usgs.gov/of/2004/1221/","DataType":"grd","DataSource":"usgs_of1221","Info":"USGS DS 1221, 4 m coastal DEM","LastUpdate":"20260916114434"},"geometry":{"type":"Polygon","coordinates":[[[-118.54708144797586,33.909517604868654],[-118.54708144797586,34.01132970653093],[-118.83117428592597,34.01132970653093],[-118.83117428592597,33.909517604868654],[-118.54708144797586,33.909517604868654]]]}},{"type":"Feature","properties":{"Name":"nthslfbat","ID":"nthslfbat","Agency":"USGS","DataLink":"http://pubs.usgs.gov/of/2004/1221/data/xyz/nthslfbat.zip","MetadataLink":"https://pubs.usgs.gov/of/2004/1221/","DataType":"xyz","DataSource":"usgs_of1221","Info":"USGS DS 1221, 4 m coastal DEM","LastUpdate":"20260916114434"},"geometry":{"type":"Polygon","coordinates":[[[-118.54708144797586,33.909517604868654],[-118.54708144797586,34.01132970653093],[-118.83117428592597,34.01132970653093],[-118.83117428592597,33.909517604868654],[-118.54708144797586,33.909517604868654]]]}},{"type":"Feature","properties":{"Name":"midslfbat","ID":"midslfbat","Agency":"USGS","DataLink":"http://pubs.usgs.gov/of/2004/1221/data/grid/midslfbat.tgz","MetadataLink":"https://pubs.usgs.gov/of/2004/1221/","DataType":"grd","DataSource":"usgs_of1221","Info":"USGS DS 1221, 4 m coastal DEM","LastUpdate":"20260916114449"},"geometry":{"type":"Polygon","coordinates":[[[-118.39111944665808,33.77229569392294],[-118.39111944665808,34.009771636916916],[-118.63847122230676,34.009771636916916],[-118.63847122230676,33.77229569392294],[-118.39111944665808,33.77229569392294]]]}},{"type":"Feature","properties":{"Name":"midslfbat","ID":"midslfbat","Agency":"USGS","DataLink":"http://pubs.usgs.gov/of/2004/1221/data/xyz/midslfbat.zip","MetadataLink":"https://pubs.usgs.gov/of/2004/1221/","DataType":"xyz","DataSource":"usgs_of1221","Info":"USGS DS 1221, 4 m coastal DEM","LastUpdate":"20260916114449"},"geometry":{"type":"Polygon","coordinates":[[[-118.39111944665808,33.77229569392294],[-118.39111944665808,34.009771636916916],[-118.63847122230676,34.009771636916916],[-118.63847122230676,33.77229569392294],[-118.39111944665808,33.77229569392294]]]}},{"type":"Feature","properties":{"Name":"outslfbat","ID":"outslfbat","Agency":"USGS","DataLink":"http://pubs.usgs.gov/of/2004/1221/data/grid/outslfbat.tgz","MetadataLink":"https://pubs.usgs.gov/of/2004/1221/","DataType":"grd","DataSource":"usgs_of1221","Info":"USGS DS 1221, 4 m coastal DEM","LastUpdate":"20260916114458"},"geometry":{"type":"Polygon","coordinates":[[[-118.41165742496142,33.75971524228871],[-118.41165742496142,34.000018743401334],[-118.74157859734964,34.000018743401334],[-118.74157859734964,33.75971524228871],[-118.41165742496142,33.75971524228871]]]}},{"type":"Feature","properties":{"Name":"outslfbat","ID":"outslfbat","Agency":"USGS","DataLink":"http://pubs.usgs.gov/of/2004/1221/data/xyz/outslfbat.zip","MetadataLink":"https://pubs.usgs.gov/of/2004/1221/","DataType":"xyz","DataSource":"usgs_of1221","Info":"USGS DS 1221, 4 m coastal DEM","LastUpdate":"20260916114458"},"geometry":{"type":"Polygon","coordinates":[[[-118.41165742496142,33.75971524228871],[-118.41165742496142,34.000018743401334],[-118.74157859734964,34.000018743401334],[-118.74157859734964,33.75971524228871],[-118.41165742496142,33.75971524228871]]]}},{"type":"Feature","properties":{"Name":"gabbat","ID":"gabbat","Agency":"USGS","DataLink":"http://pubs.usgs.gov/of/2004/1221/data/grid/gabbat.tgz","MetadataLink":"https://pubs.usgs.gov/of/2004/1221/","DataType":"grd","DataSource":"usgs_of1221","Info":"USGS DS 1221, 4 m coastal DEM","LastUpdate":"20260916114508"},"geometry":{"type":"Polygon","coordinates":[[[-118.0734699899648,33.587034192576475],[-118.0734699899648,33.66008846823442],[-118.26634304770968,33.66008846823442],[-118.26634304770968,33.587034192576475],[-118.0734699899648,33.587034192576475]]]}},{"type":"Feature","properties":{"Name":"gabbat","ID":"gabbat","Agency":"USGS","DataLink":"http://pubs.usgs.gov/of/2004/1221/data/xyz/gabbat.zip","MetadataLink":"https://pubs.usgs.gov/of/2004/1221/","DataType":"xyz","DataSource":"usgs_of1221","Info":"USGS DS 1221, 4 m coastal DEM","LastUpdate":"20260916114508"},"geometry":{"type":"Polygon","coordinates":[[[-118.0734699899648,33.587034192576475],[-118.0734699899648,33.66008846823442],[-118.26634304770968,33.66008846823442],[-118.26634304770968,33.587034192576475],[-118.0734699899648,33.587034192576475]]]}},{"type":"Feature","properties":{"Name":"huntbat","ID":"huntbat","Agency":"USGS","DataLink":"http://pubs.usgs.gov/of/2004/1221/data/grid/huntbat.tgz","MetadataLink":"https://pubs.usgs.gov/of/2004/1221/","DataType":"grd","DataSource":"usgs_of1221","Info":"USGS DS 1221, 4 m coastal DEM","LastUpdate":"20260916114518"},"geometry":{"type":"Polygon","coordinates":[[[-117.96272934184785,33.57911189503224],[-117.96272934184785,33.70463562917076],[-118.0812058623121,33.70463562917076],[-118.0812058623121,33.57911189503224],[-117.96272934184785,33.57911189503224]]]}},{"type":"Feature","properties":{"Name":"huntbat","ID":"huntbat","Agency":"USGS","DataLink":"http://pubs.usgs.gov/of/2004/1221/data/xyz/huntbat.zip","MetadataLink":"https://pubs.usgs.gov/of/2004/1221/","DataType":"xyz","DataSource":"usgs_of1221","Info":"USGS DS 1221, 4 m coastal DEM","LastUpdate":"20260916114518"},"geometry":{"type":"Polygon","coordinates":[[[-117.96272934184785,33.57911189503224],[-117.96272934184785,33.70463562917076],[-118.0812058623121,33.70463562917076],[-118.0812058623121,33.57911189503224],[-117.96272934184785,33.57911189503224]]]}},{"type":"Feature","properties":{"Name":"nphbat","ID":"nphbat","Agency":"USGS","DataLink":"http://pubs.usgs.gov/of/2004/1221/data/grid/nphbat.tgz","MetadataLink":"https://pubs.usgs.gov/of/2004/1221/","DataType":"grd","DataSource":"usgs_of1221","Info":"USGS DS 1221, 4 m coastal DEM","LastUpdate":"20260916114523"},"geometry":{"type":"Polygon","coordinates":[[[-117.82013736267194,33.543571019942256],[-117.82013736267194,33.627120600470356],[-117.9663238465939,33.627120600470356],[-117.9663238465939,33.543571019942256],[-117.82013736267194,33.543571019942256]]]}},{"type":"Feature","properties":{"Name":"nphbat","ID":"nphbat","Agency":"USGS","DataLink":"http://pubs.usgs.gov/of/2004/1221/data/xyz/nphbat.zip","MetadataLink":"https://pubs.usgs.gov/of/2004/1221/","DataType":"xyz","DataSource":"usgs_of1221","Info":"USGS DS 1221, 4 m coastal DEM","LastUpdate":"20260916114523"},"geometry":{"type":"Polygon","coordinates":[[[-117.82013736267194,33.543571019942256],[-117.82013736267194,33.627120600470356],[-117.9663238465939,33.627120600470356],[-117.9663238465939,33.543571019942256],[-117.82013736267194,33.543571019942256]]]}},{"type":"Feature","properties":{"Name":"pvebat","ID":"pvebat","Agency":"USGS","DataLink":"http://pubs.usgs.gov/of/2004/1221/data/grid/pvebat.tgz","MetadataLink":"https://pubs.usgs.gov/of/2004/1221/","DataType":"grd","DataSource":"usgs_of1221","Info":"USGS DS 1221, 4 m coastal DEM","LastUpdate":"20260916114527"},"geometry":{"type":"Polygon","coordinates":[[[-118.25440564849593,33.64401117058025],[-118.25440564849593,33.72620410545917],[-118.35741075867647,33.72620410545917],[-118.35741075867647,33.64401117058025],[-118.25440564849593,33.64401117058025]]]}},{"type":"Feature","properties":{"Name":"pvebat","ID":"pvebat","Agency":"USGS","DataLink":"http://pubs.usgs.gov/of/2004/1221/data/xyz/pvebat.zip","MetadataLink":"https://pubs.usgs.gov/of/2004/1221/","DataType":"xyz","DataSource":"usgs_of1221","Info":"USGS DS 1221, 4 m coastal DEM","LastUpdate":"20260916114527"},"geometry":{"type":"Polygon","coordinates":[[[-118.25440564849593,33.64401117058025],[-118.25440564849593,33.72620410545917],[-118.35741075867647,33.72620410545917],[-118.35741075867647,33.64401117058025],[-118.25440564849593,33.64401117058025]]]}},{"type":"Feature","properties":{"Name":"spbbat","ID":"spbbat","Agency":"USGS","DataLink":"http://pubs.usgs.gov/of/2004/1221/data/grid/spbbat.tgz","MetadataLink":"https://pubs.usgs.gov/of/2004/1221/","DataType":"grd","DataSource":"usgs_of1221","Info":"USGS DS 1221, 4 m coastal DEM","LastUpdate":"20260916114538"},"geometry":{"type":"Polygon","coordinates":[[[-118.07810688967457,33.656658872433454],[-118.07810688967457,33.7298304010412],[-118.26755989181245,33.7298304010412],[-118.26755989181245,33.656658872433454],[-118.07810688967457,33.656658872433454]]]}},{"type":"Feature","properties":{"Name":"spbbat","ID":"spbbat","Agency":"USGS","DataLink":"http://pubs.usgs.gov/of/2004/1221/data/xyz/spbbat.zip","MetadataLink":"https://pubs.usgs.gov/of/2004/1221/","DataType":"xyz","DataSource":"usgs_of1221","Info":"USGS DS 1221, 4 m coastal DEM","LastUpdate":"20260916114538"},"geometry":{"type":"Polygon","coordinates":[[[-118.07810688967457,33.656658872433454],[-118.07810688967457,33.7298304010412],[-118.26755989181245,33.7298304010412],[-118.26755989181245,33.656658872433454],[-118.07810688967457,33.656658872433454]]]}},{"type":"Feature","properties":{"Name":"sdmarbat","ID":"sdmarbat","Agency":"USGS","DataLink":"http://pubs.usgs.gov/of/2004/1221/data/grid/sdmarbat.tgz","MetadataLink":"https://pubs.usgs.gov/of/2004/1221/","DataType":"grd","DataSource":"usgs_of1221","Info":"USGS DS 1221, 4 m coastal DEM","LastUpdate":"20260916114558"},"geometry":{"type":"Polygon","coordinates":[[[-117.24721403742194,32.54897660392828],[-117.24721403742194,32.92349804315764],[-117.57603535698664,32.92349804315764],[-117.57603535698664,32.54897660392828],[-117.24721403742194,32.54897660392828]]]}},{"type":"Feature","properties":{"Name":"sdmarbat","ID":"sdmarbat","Agency":"USGS","DataLink":"http://pubs.usgs.gov/of/2004/1221/data/xyz/sdmarbat.zip","MetadataLink":"https://pubs.usgs.gov/of/2004/1221/","DataType":"xyz","DataSource":"usgs_of1221","Info":"USGS DS 1221, 4 m coastal DEM","LastUpdate":"20260916114558"},"geometry":{"type":"Polygon","coordinates":[[[-117.24721403742194,32.54897660392828],[-117.24721403742194,32.92349804315764],[-117.57603535698664,32.92349804315764],[-117.57603535698664,32.54897660392828],[-117.24721403742194,32.54897660392828]]]}},{"type":"Feature","properties":{"Name":"sdarea0bat","ID":"sdarea0bat","Agency":"USGS","DataLink":"http://pubs.usgs.gov/of/2004/1221/data/grid/sdarea0bat.tgz","MetadataLink":"https://pubs.usgs.gov/of/2004/1221/","DataType":"grd","DataSource":"usgs_of1221","Info":"USGS DS 1221, 4 m coastal DEM","LastUpdate":"20260916114604"},"geometry":{"type":"Polygon","coordinates":[[[-117.24726886228578,32.54994984297332],[-117.24726886228578,32.629843718885375],[-117.29959606952701,32.629843718885375],[-117.29959606952701,32.54994984297332],[-117.24726886228578,32.54994984297332]]]}},{"type":"Feature","properties":{"Name":"sdarea0bat","ID":"sdarea0bat","Agency":"USGS","DataLink":"http://pubs.usgs.gov/of/2004/1221/data/xyz/sdarea0bat.zip","MetadataLink":"https://pubs.usgs.gov/of/2004/1221/","DataType":"xyz","DataSource":"usgs_of1221","Info":"USGS DS 1221, 4 m coastal DEM","LastUpdate":"20260916114604"},"geometry":{"type":"Polygon","coordinates":[[[-117.24726886228578,32.54994984297332],[-117.24726886228578,32.629843718885375],[-117.29959606952701,32.629843718885375],[-117.29959606952701,32.54994984297332],[-117.24726886228578,32.54994984297332]]]}},{"type":"Feature","properties":{"Name":"sdarea2bat","ID":"sdarea2bat","Agency":"USGS","DataLink":"http://pubs.usgs.gov/of/2004/1221/data/grid/sdarea2bat.tgz","MetadataLink":"https://pubs.usgs.gov/of/2004/1221/","DataType":"grd","DataSource":"usgs_of1221","Info":"USGS DS 1221, 4 m coastal DEM","LastUpdate":"20260916114610"},"geometry":{"type":"Polygon","coordinates":[[[-117.26076581003159,32.62917575307361],[-117.26076581003159,32.85222965436356],[-117.3056170301414,32.85222965436356],[-117.3056170301414,32.62917575307361],[-117.26076581003159,32.62917575307361]]]}},{"type":"Feature","properties":{"Name":"sdarea2bat","ID":"sdarea2bat","Agency":"USGS","DataLink":"http://pubs.usgs.gov/of/2004/1221/data/xyz/sdarea2bat.zip","MetadataLink":"https://pubs.usgs.gov/of/2004/1221/","DataType":"xyz","DataSource":"usgs_of1221","Info":"USGS DS 1221, 4 m coastal DEM","LastUpdate":"20260916114610"},"geometry":{"type":"Polygon","coordinates":[[[-117.26076581003159,32.62917575307361],[-117.26076581003159,32.85222965436356],[-117.3056170301414,32.85222965436356],[-117.3056170301414,32.62917575307361],[-117.26076581003159,32.62917575307361]]]}},{"type":"Feature","properties":{"Name":"dumemos","ID":"dumemos","Agency":"USGS","DataLink":"http://pubs.usgs.gov/of/2004/1221/data/grid/dumemos.tgz","MetadataLink":"https://pubs.usgs.gov/of/2004/1221/","DataType":"grd","DataSource":"usgs_of1221","Info":"USGS DS 1221, 4 m coastal DEM","LastUpdate":"20260916114614"},"geometry":{"type":"Polygon","coordinates":[[[-118.67926532050159,33.989559936971865],[-118.67926532050159,34.009891093592636],[-118.81623508220154,34.009891093592636],[-118.81623508220154,33.989559936971865],[-118.67926532050159,33.989559936971865]]]}},{"type":"Feature","properties":{"Name":"dumemos","ID":"dumemos","Agency":"USGS","DataLink":"http://pubs.usgs.gov/of/2004/1221/data/xyz/dumemos.zip","MetadataLink":"https://pubs.usgs.gov/of/2004/1221/","DataType":"xyz","DataSource":"usgs_of1221","Info":"USGS DS 1221, 4 m coastal DEM","LastUpdate":"20260916114614"},"geometry":{"type":"Polygon","coordinates":[[[-118.67926532050159,33.989559936971865],[-118.67926532050159,34.009891093592636],[-118.81623508220154,34.009891093592636],[-118.81623508220154,33.989559936971865],[-118.67926532050159,33.989559936971865]]]}},{"type":"Feature","properties":{"Name":"delreymos","ID":"delreymos","Agency":"USGS","DataLink":"http://pubs.usgs.gov/of/2004/1221/data/grid/delreymos.tgz","MetadataLink":"https://pubs.usgs.gov/of/2004/1221/","DataType":"grd","DataSource":"usgs_of1221","Info":"USGS DS 1221, 4 m coastal DEM","LastUpdate":"20260916114621"},"geometry":{"type":"Polygon","coordinates":[[[-118.43285275617868,33.884243929699885],[-118.43285275617868,33.98979278928512],[-118.52095599828453,33.98979278928512],[-118.52095599828453,33.884243929699885],[-118.43285275617868,33.884243929699885]]]}},{"type":"Feature","properties":{"Name":"delreymos","ID":"delreymos","Agency":"USGS","DataLink":"http://pubs.usgs.gov/of/2004/1221/data/xyz/delreymos.zip","MetadataLink":"https://pubs.usgs.gov/of/2004/1221/","DataType":"xyz","DataSource":"usgs_of1221","Info":"USGS DS 1221, 4 m coastal DEM","LastUpdate":"20260916114621"},"geometry":{"type":"Polygon","coordinates":[[[-118.43285275617868,33.884243929699885],[-118.43285275617868,33.98979278928512],[-118.52095599828453,33.98979278928512],[-118.52095599828453,33.884243929699885],[-118.43285275617868,33.884243929699885]]]}},{"type":"Feature","properties":{"Name":"redonmos","ID":"redonmos","Agency":"USGS","DataLink":"http://pubs.usgs.gov/of/2004/1221/data/grid/redonmos.tgz","MetadataLink":"https://pubs.usgs.gov/of/2004/1221/","DataType":"grd","DataSource":"usgs_of1221","Info":"USGS DS 1221, 4 m coastal DEM","LastUpdate":"20260916114643"},"geometry":{"type":"Polygon","coordinates":[[[-118.3911487452451,33.775022123932],[-118.3911487452451,33.90262062487011],[-118.4663210451824,33.90262062487011],[-118.4663210451824,33.775022123932],[-118.3911487452451,33.775022123932]]]}},{"type":"Feature","properties":{"Name":"redonmos","ID":"redonmos","Agency":"USGS","DataLink":"http://pubs.usgs.gov/of/2004/1221/data/xyz/redonmos.zip","MetadataLink":"https://pubs.usgs.gov/of/2004/1221/","DataType":"xyz","DataSource":"usgs_of1221","Info":"USGS DS 1221, 4 m coastal DEM","LastUpdate":"20260916114643"},"geometry":{"type":"Polygon","coordinates":[[[-118.3911487452451,33.775022123932],[-118.3911487452451,33.90262062487011],[-118.4663210451824,33.90262062487011],[-118.4663210451824,33.775022123932],[-118.3911487452451,33.775022123932]]]}},{"type":"Feature","properties":{"Name":"pvmos","ID":"pvmos","Agency":"USGS","DataLink":"http://pubs.usgs.gov/of/2004/1221/data/grid/pvmos.tgz","MetadataLink":"https://pubs.usgs.gov/of/2004/1221/","DataType":"grd","DataSource":"usgs_of1221","Info":"USGS DS 1221, 4 m coastal DEM","LastUpdate":"20260916114649"},"geometry":{"type":"Polygon","coordinates":[[[-118.30516508039128,33.66808201637825],[-118.30516508039128,33.797142079154156],[-118.47351605214038,33.797142079154156],[-118.47351605214038,33.66808201637825],[-118.30516508039128,33.66808201637825]]]}},{"type":"Feature","properties":{"Name":"pvmos","ID":"pvmos","Agency":"USGS","DataLink":"http://pubs.usgs.gov/of/2004/1221/data/xyz/pvmos.zip","MetadataLink":"https://pubs.usgs.gov/of/2004/1221/","DataType":"xyz","DataSource":"usgs_of1221","Info":"USGS DS 1221, 4 m coastal DEM","LastUpdate":"20260916114649"},"geometry":{"type":"Polygon","coordinates":[[[-118.30516508039128,33.66808201637825],[-118.30516508039128,33.797142079154156],[-118.47351605214038,33.797142079154156],[-118.47351605214038,33.66808201637825],[-118.30516508039128,33.66808201637825]]]}},{"type":"Feature","properties":{"Name":"nthslfmos","ID":"nthslfmos","Agency":"USGS","DataLink":"http://pubs.usgs.gov/of/2004/1221/data/grid/nthslfmos.tgz","MetadataLink":"https://pubs.usgs.gov/of/2004/1221/","DataType":"grd","DataSource":"usgs_of1221","Info":"USGS DS 1221, 4 m coastal DEM","LastUpdate":"20260916114710"},"geometry":{"type":"Polygon","coordinates":[[[-118.54689499028174,33.909486849556686],[-118.54689499028174,34.01162566151024],[-118.8311676978195,34.01162566151024],[-118.8311676978195,33.909486849556686],[-118.54689499028174,33.909486849556686]]]}},{"type":"Feature","properties":{"Name":"nthslfmos","ID":"nthslfmos","Agency":"USGS","DataLink":"http://pubs.usgs.gov/of/2004/1221/data/xyz/nthslfmos.zip","MetadataLink":"https://pubs.usgs.gov/of/2004/1221/","DataType":"xyz","DataSource":"usgs_of1221","Info":"USGS DS 1221, 4 m coastal DEM","LastUpdate":"20260916114710"},"geometry":{"type":"Polygon","coordinates":[[[-118.54689499028174,33.909486849556686],[-118.54689499028174,34.01162566151024],[-118.8311676978195,34.01162566151024],[-118.8311676978195,33.909486849556686],[-118.54689499028174,33.909486849556686]]]}},{"type":"Feature","properties":{"Name":"midslfmos","ID":"midslfmos","Agency":"USGS","DataLink":"http://pubs.usgs.gov/of/2004/1221/data/grid/midslfmos.tgz","MetadataLink":"https://pubs.usgs.gov/of/2004/1221/","DataType":"grd","DataSource":"usgs_of1221","Info":"USGS DS 1221, 4 m coastal DEM","LastUpdate":"20260916114733"},"geometry":{"type":"Polygon","coordinates":[[[-118.39109862078504,33.77222003833768],[-118.39109862078504,34.011812307785995],[-118.64035231885683,34.011812307785995],[-118.64035231885683,33.77222003833768],[-118.39109862078504,33.77222003833768]]]}},{"type":"Feature","properties":{"Name":"midslfmos","ID":"midslfmos","Agency":"USGS","DataLink":"http://pubs.usgs.gov/of/2004/1221/data/xyz/midslfmos.zip","MetadataLink":"https://pubs.usgs.gov/of/2004/1221/","DataType":"xyz","DataSource":"usgs_of1221","Info":"USGS DS 1221, 4 m coastal DEM","LastUpdate":"20260916114733"},"geometry":{"type":"Polygon","coordinates":[[[-118.39109862078504,33.77222003833768],[-118.39109862078504,34.011812307785995],[-118.64035231885683,34.011812307785995],[-118.64035231885683,33.77222003833768],[-118.39109862078504,33.77222003833768]]]}},{"type":"Feature","properties":{"Name":"outslfmos","ID":"outslfmos","Agency":"USGS","DataLink":"http://pubs.usgs.gov/of/2004/1221/data/grid/outslfmos.tgz","MetadataLink":"https://pubs.usgs.gov/of/2004/1221/","DataType":"grd","DataSource":"usgs_of1221","Info":"USGS DS 1221, 4 m coastal DEM","LastUpdate":"20260916114802"},"geometry":{"type":"Polygon","coordinates":[[[-118.41164844645535,33.7596747551749],[-118.41164844645535,34.00001429518956],[-118.74157017084313,34.00001429518956],[-118.74157017084313,33.7596747551749],[-118.41164844645535,33.7596747551749]]]}},{"type":"Feature","properties":{"Name":"outslfmos","ID":"outslfmos","Agency":"USGS","DataLink":"http://pubs.usgs.gov/of/2004/1221/data/xyz/outslfmos.zip","MetadataLink":"https://pubs.usgs.gov/of/2004/1221/","DataType":"xyz","DataSource":"usgs_of1221","Info":"USGS DS 1221, 4 m coastal DEM","LastUpdate":"20260916114802"},"geometry":{"type":"Polygon","coordinates":[[[-118.41164844645535,33.7596747551749],[-118.41164844645535,34.00001429518956],[-118.74157017084313,34.00001429518956],[-118.74157017084313,33.7596747551749],[-118.41164844645535,33.7596747551749]]]}},{"type":"Feature","properties":{"Name":"gabmos","ID":"gabmos","Agency":"USGS","DataLink":"http://pubs.usgs.gov/of/2004/1221/data/grid/gabmos.tgz","MetadataLink":"https://pubs.usgs.gov/of/2004/1221/","DataType":"grd","DataSource":"usgs_of1221","Info":"USGS DS 1221, 4 m coastal DEM","LastUpdate":"20260916114811"},"geometry":{"type":"Polygon","coordinates":[[[-118.0734699899648,33.587034192576475],[-118.0734699899648,33.66008846823442],[-118.26634304770968,33.66008846823442],[-118.26634304770968,33.587034192576475],[-118.0734699899648,33.587034192576475]]]}},{"type":"Feature","properties":{"Name":"gabmos","ID":"gabmos","Agency":"USGS","DataLink":"http://pubs.usgs.gov/of/2004/1221/data/xyz/gabmos.zip","MetadataLink":"https://pubs.usgs.gov/of/2004/1221/","DataType":"xyz","DataSource":"usgs_of1221","Info":"USGS DS 1221, 4 m coastal DEM","LastUpdate":"20260916114811"},"geometry":{"type":"Polygon","coordinates":[[[-118.0734699899648,33.587034192576475],[-118.0734699899648,33.66008846823442],[-118.26634304770968,33.66008846823442],[-118.26634304770968,33.587034192576475],[-118.0734699899648,33.587034192576475]]]}},{"type":"Feature","properties":{"Name":"huntmos","ID":"huntmos","Agency":"USGS","DataLink":"http://pubs.usgs.gov/of/2004/1221/data/grid/huntmos.tgz","MetadataLink":"https://pubs.usgs.gov/of/2004/1221/","DataType":"grd","DataSource":"usgs_of1221","Info":"USGS DS 1221, 4 m coastal DEM","LastUpdate":"20260916114821"},"geometry":{"type":"Polygon","coordinates":[[[-117.96272901716402,33.57904190292826],[-117.96272901716402,33.70972397152238],[-118.08127007785247,33.70972397152238],[-118.08127007785247,33.57904190292826],[-117.96272901716402,33.57904190292826]]]}},{"type":"Feature","properties":{"Name":"huntmos","ID":"huntmos","Agency":"USGS","DataLink":"http://pubs.usgs.gov/of/2004/1221/data/xyz/huntmos.zip","MetadataLink":"https://pubs.usgs.gov/of/2004/1221/","DataType":"xyz","DataSource":"usgs_of1221","Info":"USGS DS 1221, 4 m coastal DEM","LastUpdate":"20260916114821"},"geometry":{"type":"Polygon","coordinates":[[[-117.96272901716402,33.57904190292826],[-117.96272901716402,33.70972397152238],[-118.08127007785247,33.70972397152238],[-118.08127007785247,33.57904190292826],[-117.96272901716402,33.57904190292826]]]}},{"type":"Feature","properties":{"Name":"nphmos","ID":"nphmos","Agency":"USGS","DataLink":"http://pubs.usgs.gov/of/2004/1221/data/grid/nphmos.tgz","MetadataLink":"https://pubs.usgs.gov/of/2004/1221/","DataType":"grd","DataSource":"usgs_of1221","Info":"USGS DS 1221, 4 m coastal DEM","LastUpdate":"20260916114825"},"geometry":{"type":"Polygon","coordinates":[[[-117.82087109230615,33.544489685513575],[-117.82087109230615,33.6259849077279],[-117.96716620300313,33.6259849077279],[-117.96716620300313,33.544489685513575],[-117.82087109230615,33.544489685513575]]]}},{"type":"Feature","properties":{"Name":"nphmos","ID":"nphmos","Agency":"USGS","DataLink":"http://pubs.usgs.gov/of/2004/1221/data/xyz/nphmos.zip","MetadataLink":"https://pubs.usgs.gov/of/2004/1221/","DataType":"xyz","DataSource":"usgs_of1221","Info":"USGS DS 1221, 4 m coastal DEM","LastUpdate":"20260916114825"},"geometry":{"type":"Polygon","coordinates":[[[-117.82087109230615,33.544489685513575],[-117.82087109230615,33.6259849077279],[-117.96716620300313,33.6259849077279],[-117.96716620300313,33.544489685513575],[-117.82087109230615,33.544489685513575]]]}},{"type":"Feature","properties":{"Name":"pvemos","ID":"pvemos","Agency":"USGS","DataLink":"http://pubs.usgs.gov/of/2004/1221/data/grid/pvemos.tgz","MetadataLink":"https://pubs.usgs.gov/of/2004/1221/","DataType":"grd","DataSource":"usgs_of1221","Info":"USGS DS 1221, 4 m coastal DEM","LastUpdate":"20260916114828"},"geometry":{"type":"Polygon","coordinates":[[[-118.25427511709601,33.643866407692705],[-118.25427511709601,33.72620540360775],[-118.35745486111739,33.72620540360775],[-118.35745486111739,33.643866407692705],[-118.25427511709601,33.643866407692705]]]}},{"type":"Feature","properties":{"Name":"pvemos","ID":"pvemos","Agency":"USGS","DataLink":"http://pubs.usgs.gov/of/2004/1221/data/xyz/pvemos.zip","MetadataLink":"https://pubs.usgs.gov/of/2004/1221/","DataType":"xyz","DataSource":"usgs_of1221","Info":"USGS DS 1221, 4 m coastal DEM","LastUpdate":"20260916114828"},"geometry":{"type":"Polygon","coordinates":[[[-118.25427511709601,33.643866407692705],[-118.25427511709601,33.72620540360775],[-118.35745486111739,33.72620540360775],[-118.35745486111739,33.643866407692705],[-118.25427511709601,33.643866407692705]]]}},{"type":"Feature","properties":{"Name":"spbmos","ID":"spbmos","Agency":"USGS","DataLink":"http://pubs.usgs.gov/of/2004/1221/data/grid/spbmos.tgz","MetadataLink":"https://pubs.usgs.gov/of/2004/1221/","DataType":"grd","DataSource":"usgs_of1221","Info":"USGS DS 1221, 4 m coastal DEM","LastUpdate":"20260916114837"},"geometry":{"type":"Polygon","coordinates":[[[-118.0778900269758,33.65654844550887],[-118.0778900269758,33.72983139278548],[-118.26768955170328,33.72983139278548],[-118.26768955170328,33.65654844550887],[-118.0778900269758,33.65654844550887]]]}},{"type":"Feature","properties":{"Name":"spbmos","ID":"spbmos","Agency":"USGS","DataLink":"http://pubs.usgs.gov/of/2004/1221/data/xyz/spbmos.zip","MetadataLink":"https://pubs.usgs.gov/of/2004/1221/","DataType":"xyz","DataSource":"usgs_of1221","Info":"USGS DS 1221, 4 m coastal DEM","LastUpdate":"20260916114837"},"geometry":{"type":"Polygon","coordinates":[[[-118.0778900269758,33.65654844550887],[-118.0778900269758,33.72983139278548],[-118.26768955170328,33.72983139278548],[-118.26768955170328,33.65654844550887],[-118.0778900269758,33.65654844550887]]]}}]}
