{"type":"FeatureCollection","name":"usgs_of2014_1094","features":[{"type":"Feature","properties":{"Name":"USGS_GOSC_BACK_CEN","ID":"USGS_GOSC_BACK_CEN","Agency":"USGS","DataLink":"https://pubs.usgs.gov/of/2014/1094/downloads/data/backscatter/USGS_GOSC_BACK_CEN.zip","MetadataLink":"https://pubs.usgs.gov/of/2014/1094/downloads/metadata/bathymetry/Bathymetry_GoSC_metadata.txt","DataType":"backscatter","DataSource":"usgs_of2014_1094","Info":"USGS OFR 2014-1094: USGS_GOSC_BACK_CEN","LastUpdate":"20260922152157"},"geometry":{"type":"Polygon","coordinates":[[[-117.33,33.0],[-117.33,33.46],[-117.86,33.46],[-117.86,33.0],[-117.33,33.0]]]}},{"type":"Feature","properties":{"Name":"USGS_GOSC_BACK_NTH","ID":"USGS_GOSC_BACK_NTH","Agency":"USGS","DataLink":"https://pubs.usgs.gov/of/2014/1094/downloads/data/backscatter/USGS_GOSC_BACK_NTH.zip","MetadataLink":"https://pubs.usgs.gov/of/2014/1094/downloads/metadata/bathymetry/Bathymetry_GoSC_metadata.txt","DataType":"backscatter","DataSource":"usgs_of2014_1094","Info":"USGS OFR 2014-1094: USGS_GOSC_BACK_NTH","LastUpdate":"20260922152158"},"geometry":{"type":"Polygon","coordinates":[[[-117.33,33.0],[-117.33,33.46],[-117.86,33.46],[-117.86,33.0],[-117.33,33.0]]]}},{"type":"Feature","properties":{"Name":"USGS_GOSC_BACK_STH","ID":"USGS_GOSC_BACK_STH","Agency":"USGS","DataLink":"https://pubs.usgs.gov/of/2014/1094/downloads/data/backscatter/USGS_GOSC_BACK_STH.zip","MetadataLink":"https://pubs.usgs.gov/of/2014/1094/downloads/metadata/bathymetry/Bathymetry_GoSC_metadata.txt","DataType":"backscatter","DataSource":"usgs_of2014_1094","Info":"USGS OFR 2014-1094: USGS_GOSC_BACK_STH","LastUpdate":"20260922152200"},"geometry":{"type":"Polygon","coordinates":[[[-117.33,33.0],[-117.33,33.46],[-117.86,33.46],[-117.86,33.0],[-117.33,33.0]]]}},{"type":"Feature","properties":{"Name":"S-07-11-SC_STDDEV","ID":"S-07-11-SC_STDDEV","Agency":"USGS","DataLink":"https://pubs.usgs.gov/of/2014/1094/downloads/data/bathymetry/S-07-11-SC_STDDEV.zip","MetadataLink":"https://pubs.usgs.gov/of/2014/1094/downloads/metadata/bathymetry/Bathymetry_GoSC_metadata.txt","DataType":"bathymetry","DataSource":"usgs_of2014_1094","Info":"USGS OFR 2014-1094: S-07-11-SC_STDDEV","LastUpdate":"20260922152202"},"geometry":{"type":"Polygon","coordinates":[[[-117.33,33.0],[-117.33,33.46],[-117.86,33.46],[-117.86,33.0],[-117.33,33.0]]]}},{"type":"Feature","properties":{"Name":"S-11-10-SC_STDDEV","ID":"S-11-10-SC_STDDEV","Agency":"USGS","DataLink":"https://pubs.usgs.gov/of/2014/1094/downloads/data/bathymetry/S-11-10-SC_STDDEV.zip","MetadataLink":"https://pubs.usgs.gov/of/2014/1094/downloads/metadata/bathymetry/Bathymetry_GoSC_metadata.txt","DataType":"bathymetry","DataSource":"usgs_of2014_1094","Info":"USGS OFR 2014-1094: S-11-10-SC_STDDEV","LastUpdate":"20260922152203"},"geometry":{"type":"Polygon","coordinates":[[[-117.33,33.0],[-117.33,33.46],[-117.86,33.46],[-117.86,33.0],[-117.33,33.0]]]}},{"type":"Feature","properties":{"Name":"S-23-10-SC_STDDEV","ID":"S-23-10-SC_STDDEV","Agency":"USGS","DataLink":"https://pubs.usgs.gov/of/2014/1094/downloads/data/bathymetry/S-23-10-SC_STDDEV.zip","MetadataLink":"https://pubs.usgs.gov/of/2014/1094/downloads/metadata/bathymetry/Bathymetry_GoSC_metadata.txt","DataType":"bathymetry","DataSource":"usgs_of2014_1094","Info":"USGS OFR 2014-1094: S-23-10-SC_STDDEV","LastUpdate":"20260922152204"},"geometry":{"type":"Polygon","coordinates":[[[-117.33,33.0],[-117.33,33.46],[-117.86,33.46],[-117.86,33.0],[-117.33,33.0]]]}},{"type":"Feature","properties":{"Name":"SHELF_MERGE_5m_NAD83","ID":"SHELF_MERGE_5m_NAD83","Agency":"USGS","DataLink":"https://pubs.usgs.gov/of/2014/1094/downloads/data/bathymetry/SHELF_MERGE_5m_NAD83.zip","MetadataLink":"https://pubs.usgs.gov/of/2014/1094/downloads/metadata/bathymetry/Bathymetry_GoSC_metadata.txt","DataType":"bathymetry","DataSource":"usgs_of2014_1094","Info":"USGS OFR 2014-1094: SHELF_MERGE_5m_NAD83","LastUpdate":"20260922152206"},"geometry":{"type":"Polygon","coordinates":[[[-117.33,33.0],[-117.33,33.46],[-117.86,33.46],[-117.86,33.0],[-117.33,33.0]]]}},{"type":"Feature","properties":{"Name":"SHELF_MERGE_5m_SHD","ID":"SHELF_MERGE_5m_SHD","Agency":"USGS","DataLink":"https://pubs.usgs.gov/of/2014/1094/downloads/data/bathymetry/SHELF_MERGE_5m_SHD.zip","MetadataLink":"https://pubs.usgs.gov/of/2014/1094/downloads/metadata/bathymetry/Bathymetry_GoSC_metadata.txt","DataType":"bathymetry","DataSource":"usgs_of2014_1094","Info":"USGS OFR 2014-1094: SHELF_MERGE_5m_SHD","LastUpdate":"20260922152207"},"geometry":{"type":"Polygon","coordinates":[[[-117.33,33.0],[-117.33,33.46],[-117.86,33.46],[-117.86,33.0],[-117.33,33.0]]]}},{"type":"Feature","properties":{"Name":"USGS_GOSC_NAD83","ID":"USGS_GOSC_NAD83","Agency":"USGS","DataLink":"https://pubs.usgs.gov/of/2014/1094/downloads/data/bathymetry/USGS_GOSC_NAD83.zip","MetadataLink":"https://pubs.usgs.gov/of/2014/1094/downloads/metadata/bathymetry/Bathymetry_GoSC_metadata.txt","DataType":"bathymetry","DataSource":"usgs_of2014_1094","Info":"USGS OFR 2014-1094: USGS_GOSC_NAD83","LastUpdate":"20260922152208"},"geometry":{"type":"Polygon","coordinates":[[[-117.33,33.0],[-117.33,33.46],[-117.86,33.46],[-117.86,33.0],[-117.33,33.0]]]}},{"type":"Feature","properties":{"Name":"USGS_GOSC_SHD","ID":"USGS_GOSC_SHD","Agency":"USGS","DataLink":"https://pubs.usgs.gov/of/2014/1094/downloads/data/bathymetry/USGS_GOSC_SHD.zip","MetadataLink":"https://pubs.usgs.gov/of/2014/1094/downloads/metadata/bathymetry/Bathymetry_GoSC_metadata.txt","DataType":"bathymetry","DataSource":"usgs_of2014_1094","Info":"USGS OFR 2014-1094: USGS_GOSC_SHD","LastUpdate":"20260922152209"},"geometry":{"type":"Polygon","coordinates":[[[-117.33,33.0],[-117.33,33.46],[-117.86,33.46],[-117.86,33.0],[-117.33,33.0]]]}},{"type":"Feature","properties":{"Name":"USGS_GOSC_SHELF5m_NAD83","ID":"USGS_GOSC_SHELF5m_NAD83","Agency":"USGS","DataLink":"https://pubs.usgs.gov/of/2014/1094/downloads/data/bathymetry/USGS_GOSC_SHELF5m_NAD83.zip","MetadataLink":"https://pubs.usgs.gov/of/2014/1094/downloads/metadata/bathymetry/Bathymetry_GoSC_metadata.txt","DataType":"bathymetry","DataSource":"usgs_of2014_1094","Info":"USGS OFR 2014-1094: USGS_GOSC_SHELF5m_NAD83","LastUpdate":"20260922152210"},"geometry":{"type":"Polygon","coordinates":[[[-117.33,33.0],[-117.33,33.46],[-117.86,33.46],[-117.86,33.0],[-117.33,33.0]]]}},{"type":"Feature","properties":{"Name":"USGS_GOSC_SHELF5m_SHD","ID":"USGS_GOSC_SHELF5m_SHD","Agency":"USGS","DataLink":"https://pubs.usgs.gov/of/2014/1094/downloads/data/bathymetry/USGS_GOSC_SHELF5m_SHD.zip","MetadataLink":"https://pubs.usgs.gov/of/2014/1094/downloads/metadata/bathymetry/Bathymetry_GoSC_metadata.txt","DataType":"bathymetry","DataSource":"usgs_of2014_1094","Info":"USGS OFR 2014-1094: USGS_GOSC_SHELF5m_SHD","LastUpdate":"20260922152212"},"geometry":{"type":"Polygon","coordinates":[[[-117.33,33.0],[-117.33,33.46],[-117.86,33.46],[-117.86,33.0],[-117.33,33.0]]]}}]}
